{"type":"FeatureCollection","features":[{"type":"Feature","geometry":{"type":"Polygon","coordinates":[[[-75.77379933899994,5.246518925000089],[-75.77518800899992,5.246170070000062],[-75.77587614599992,5.246269726000094],[-75.77695821099991,5.245212506000087],[-75.7779037439999,5.243743573000074],[-75.77892940399994,5.241864117000091],[-75.77876545599992,5.241503726000076],[-75.77753925399992,5.240277536000065],[-75.77719297899995,5.239887986000042],[-75.7772357209999,5.239497953000068],[-75.77748013999991,5.239078781000046],[-75.77778215399991,5.238630651000051],[-75.77822442099995,5.238109558000076],[-75.77880405099995,5.237673889000064],[-75.77954292399994,5.237386463000064],[-75.7811516829999,5.237066535000054],[-75.78193311799993,5.236457317000088],[-75.7830769549999,5.232731022000053],[-75.78307572299991,5.231740555000044],[-75.7825630019999,5.231211474000077],[-75.7820079139999,5.231057645000078],[-75.7816751979999,5.23077787200009],[-75.78154233899994,5.230240379000065],[-75.7815347369999,5.230111568000041],[-75.78149327299991,5.22940896700004],[-75.78154785499993,5.229196837000075],[-75.78166005999992,5.22876077300009],[-75.78515941199993,5.227369808000049],[-75.78585407899993,5.226167773000043],[-75.78622915299991,5.225518754000063],[-75.78759003999994,5.22391525200004],[-75.7875920764181,5.223871065015455],[-75.7875947899999,5.223847395000064],[-75.78760681499995,5.223798915000089],[-75.78761569999995,5.223773932000086],[-75.78784846799994,5.22355619800004],[-75.78789106599993,5.223516351000058],[-75.78919677999994,5.222294970000064],[-75.79089419499991,5.222709016000067],[-75.79090647399994,5.222843756000088],[-75.79119452799995,5.226004519000071],[-75.7911074889999,5.226171230000091],[-75.7911186469999,5.226197991000049],[-75.7909168409999,5.227769170000045],[-75.78993117999994,5.230574053000055],[-75.78885047799992,5.233959201000062],[-75.78888503799993,5.234250540000062],[-75.78886652299991,5.234420808000039],[-75.7888529889999,5.234545261000051],[-75.78879975299992,5.235034832000053],[-75.78846835799993,5.235952016000056],[-75.78834029299992,5.23630645500009],[-75.78812663499991,5.236818740000047],[-75.78774145199992,5.237742284000092],[-75.78747840499994,5.23837298400008],[-75.78667769499992,5.240240211000071],[-75.7866743429999,5.240598322000039],[-75.78637367199991,5.242115287000047],[-75.78602921499993,5.243184553000049],[-75.78451815499994,5.244616375000078],[-75.78457726599993,5.245800682000038],[-75.78424701499995,5.246711049000055],[-75.77978958499995,5.250950055000089],[-75.77628292999992,5.249653065000075],[-75.77367181699992,5.24704199200005],[-75.77377816899991,5.246561813000085],[-75.77379933899994,5.246518925000089]]]},"properties":{"externalId":"unosat-anserma-area-0","source":"unosat","divipola":"17042","imageryDate":"2026-08-12"}},{"type":"Feature","geometry":{"type":"Polygon","coordinates":[[[-75.5197740239999,5.088329367000085],[-75.51976677199991,5.079283142000065],[-75.51074519999992,5.079290344000071],[-75.5107384609999,5.070720685000083],[-75.52878125599995,5.070584017000044],[-75.52878833099993,5.079275813000038],[-75.52879570899995,5.088322026000071],[-75.5197740239999,5.088329367000085]]]},"properties":{"externalId":"unosat-manizales-area-0","source":"unosat","divipola":"17001","imageryDate":"2026-08-11"}},{"type":"Feature","geometry":{"type":"Polygon","coordinates":[[[-75.47070465799993,5.07459755900004],[-75.4707436779999,5.063637634000088],[-75.47694010799995,5.063633088000074],[-75.47960549899994,5.063631116000067],[-75.47959880099995,5.06359516100008],[-75.48365678999994,5.063601658000039],[-75.48740674399994,5.063607639000054],[-75.48783998399995,5.063608327000054],[-75.5085416949999,5.063640945000088],[-75.50855024599991,5.065312243000051],[-75.50351014899991,5.065248071000042],[-75.49847591699995,5.069624145000091],[-75.49598314999992,5.069630739000047],[-75.49565234499994,5.074650703000088],[-75.4795788429999,5.074610065000059],[-75.47070465799993,5.07459755900004]]]},"properties":{"externalId":"unosat-manizales-area-1","source":"unosat","divipola":"17001","imageryDate":"2026-08-11"}},{"type":"Feature","geometry":{"type":"Polygon","coordinates":[[[-75.8436999999999,5.0643],[-75.8442,5.059],[-75.8458,5.0539],[-75.8483,5.0493],[-75.8516,5.0452],[-75.8556999999999,5.0418],[-75.8604,5.0394],[-75.8655,5.0378],[-75.8708,5.0373],[-75.8761,5.0378],[-75.8811,5.0394],[-75.8858,5.0418],[-75.8898999999999,5.0452],[-75.8932999999999,5.0493],[-75.8958,5.0539],[-75.8973,5.059],[-75.8978,5.0643],[-75.8973,5.0695],[-75.8958,5.0746],[-75.8932999999999,5.0792],[-75.8898999999999,5.0833],[-75.8858,5.0867],[-75.8811,5.0892],[-75.8761,5.0907],[-75.8708,5.0912],[-75.8655,5.0907],[-75.8604,5.0892],[-75.8556999999999,5.0867],[-75.8516,5.0833],[-75.8483,5.0792],[-75.8458,5.0746],[-75.8442,5.0695],[-75.8436999999999,5.0643]]]},"properties":{"externalId":"unosat-viterbo-area-0","source":"unosat","divipola":"17877","imageryDate":"2026-08-12"}},{"type":"Feature","geometry":{"type":"Polygon","coordinates":[[[-76.61446747345857,3.5479093719291193],[-76.61443769218037,3.5385178751270923],[-76.61420487985266,3.531401140848226],[-76.61457217797977,3.5147471123426044],[-76.61445728065051,3.4976100964121652],[-76.61455876645839,3.4938026551896604],[-76.61439666580321,3.483195039836975],[-76.6145867726458,3.478564497353786],[-76.61448925492579,3.4127106553597084],[-76.60794318783115,3.4131557550513034],[-76.6040956439451,3.4128909057910466],[-76.45877282159027,3.4154341021662415],[-76.45877869742095,3.5479067933845903],[-76.61446747345857,3.5479093719291193]]]},"properties":{"externalId":"microsoft_ai_for_good-cali-area-0","source":"microsoft_ai_for_good","divipola":"76001","imageryDate":"2026-08-10"}},{"type":"Feature","geometry":{"type":"Polygon","coordinates":[[[-75.78562556789576,4.843289744314607],[-75.78562556789576,4.77583279259566],[-75.69249790030452,4.77583279259566],[-75.69237356834843,4.784185069149913],[-75.69218858665768,4.7870228965443475],[-75.69236447088824,4.789264567272856],[-75.6924069257025,4.793428539087413],[-75.69224013893215,4.803027878055084],[-75.6923341460209,4.815154799621656],[-75.69217645671074,4.8200335511121954],[-75.6923978282423,4.822618924408305],[-75.69230685364029,4.831962767662007],[-75.69248273787085,4.843289744314607],[-75.78562556789576,4.843289744314607]]]},"properties":{"externalId":"microsoft_ai_for_good-pereira-area-0","source":"microsoft_ai_for_good","divipola":"66001","imageryDate":"2026-08-12"}}]}
