{"type":"FeatureCollection","pulso":{"source":"unosat","sourceLabel":"UNOSAT — United Nations Satellite Centre","dataset":"preliminary-satellite-derived-damage-assessment-san-jose-del-palmar-municipality-choco-dep","sourceUrl":"https://data.humdata.org/dataset/preliminary-satellite-derived-damage-assessment-san-jose-del-palmar-municipality-choco-dep","method":"analista","sensor":"Pleiades","imageryDate":"2026-08-12","municipality":"ANSERMA","divipola":"17042","license":"CC BY-SA 4.0","attribution":"UNOSAT (EQ20260810COL), CC BY-SA 4.0"},"features":[{"type":"Feature","geometry":{"type":"Point","coordinates":[-75.77879185799992,5.249569439000084]},"properties":{"externalId":"unosat-anserma-0000","damageLevel":"dano","rawLabel":"Damage","fieldValidated":false,"rawEventCode":"EQ20260810COL","modelScore":null}},{"type":"Feature","geometry":{"type":"Point","coordinates":[-75.77875344199992,5.249641172000054]},"properties":{"externalId":"unosat-anserma-0001","damageLevel":"posible_dano","rawLabel":"Possible Damage","fieldValidated":false,"rawEventCode":"EQ20260810COL","modelScore":null}},{"type":"Feature","geometry":{"type":"Point","coordinates":[-75.7791815249999,5.248857616000066]},"properties":{"externalId":"unosat-anserma-0002","damageLevel":"posible_dano","rawLabel":"Possible Damage","fieldValidated":false,"rawEventCode":"EQ20260810COL","modelScore":null}},{"type":"Feature","geometry":{"type":"Point","coordinates":[-75.77924208699994,5.248901654000065]},"properties":{"externalId":"unosat-anserma-0003","damageLevel":"posible_dano","rawLabel":"Possible Damage","fieldValidated":false,"rawEventCode":"EQ20260810COL","modelScore":null}},{"type":"Feature","geometry":{"type":"Point","coordinates":[-75.77891272699992,5.249450732000071]},"properties":{"externalId":"unosat-anserma-0004","damageLevel":"posible_dano","rawLabel":"Possible Damage","fieldValidated":false,"rawEventCode":"EQ20260810COL","modelScore":null}},{"type":"Feature","geometry":{"type":"Point","coordinates":[-75.77906074899994,5.24905076500005]},"properties":{"externalId":"unosat-anserma-0005","damageLevel":"posible_dano","rawLabel":"Possible Damage","fieldValidated":false,"rawEventCode":"EQ20260810COL","modelScore":null}},{"type":"Feature","geometry":{"type":"Point","coordinates":[-75.78066483299995,5.248758732000056]},"properties":{"externalId":"unosat-anserma-0006","damageLevel":"posible_dano","rawLabel":"Possible Damage","fieldValidated":false,"rawEventCode":"EQ20260810COL","modelScore":null}},{"type":"Feature","geometry":{"type":"Point","coordinates":[-75.78078515899995,5.248204400000077]},"properties":{"externalId":"unosat-anserma-0007","damageLevel":"dano","rawLabel":"Damage","fieldValidated":false,"rawEventCode":"EQ20260810COL","modelScore":null}},{"type":"Feature","geometry":{"type":"Point","coordinates":[-75.78052385299992,5.248185427000067]},"properties":{"externalId":"unosat-anserma-0008","damageLevel":"posible_dano","rawLabel":"Possible Damage","fieldValidated":false,"rawEventCode":"EQ20260810COL","modelScore":null}},{"type":"Feature","geometry":{"type":"Point","coordinates":[-75.78056798799992,5.248290142000087]},"properties":{"externalId":"unosat-anserma-0009","damageLevel":"posible_dano","rawLabel":"Possible Damage","fieldValidated":false,"rawEventCode":"EQ20260810COL","modelScore":null}},{"type":"Feature","geometry":{"type":"Point","coordinates":[-75.77979228599992,5.248205640000037]},"properties":{"externalId":"unosat-anserma-0010","damageLevel":"posible_dano","rawLabel":"Possible Damage","fieldValidated":false,"rawEventCode":"EQ20260810COL","modelScore":null}},{"type":"Feature","geometry":{"type":"Point","coordinates":[-75.77968523399994,5.248376715000063]},"properties":{"externalId":"unosat-anserma-0011","damageLevel":"posible_dano","rawLabel":"Possible Damage","fieldValidated":false,"rawEventCode":"EQ20260810COL","modelScore":null}},{"type":"Feature","geometry":{"type":"Point","coordinates":[-75.7809670659999,5.248512970000093]},"properties":{"externalId":"unosat-anserma-0012","damageLevel":"posible_dano","rawLabel":"Possible Damage","fieldValidated":false,"rawEventCode":"EQ20260810COL","modelScore":null}},{"type":"Feature","geometry":{"type":"Point","coordinates":[-75.78128181799991,5.247277387000054]},"properties":{"externalId":"unosat-anserma-0013","damageLevel":"posible_dano","rawLabel":"Possible Damage","fieldValidated":false,"rawEventCode":"EQ20260810COL","modelScore":null}},{"type":"Feature","geometry":{"type":"Point","coordinates":[-75.77993085399993,5.246837935000087]},"properties":{"externalId":"unosat-anserma-0014","damageLevel":"posible_dano","rawLabel":"Possible Damage","fieldValidated":false,"rawEventCode":"EQ20260810COL","modelScore":null}},{"type":"Feature","geometry":{"type":"Point","coordinates":[-75.77833324699992,5.247705776000089]},"properties":{"externalId":"unosat-anserma-0015","damageLevel":"posible_dano","rawLabel":"Possible Damage","fieldValidated":false,"rawEventCode":"EQ20260810COL","modelScore":null}},{"type":"Feature","geometry":{"type":"Point","coordinates":[-75.78100069599992,5.242971229000091]},"properties":{"externalId":"unosat-anserma-0016","damageLevel":"dano","rawLabel":"Damage","fieldValidated":false,"rawEventCode":"EQ20260810COL","modelScore":null}},{"type":"Feature","geometry":{"type":"Point","coordinates":[-75.78092103599994,5.243051285000092]},"properties":{"externalId":"unosat-anserma-0017","damageLevel":"dano","rawLabel":"Damage","fieldValidated":false,"rawEventCode":"EQ20260810COL","modelScore":null}},{"type":"Feature","geometry":{"type":"Point","coordinates":[-75.77898137699992,5.246938489000058]},"properties":{"externalId":"unosat-anserma-0018","damageLevel":"dano","rawLabel":"Damage","fieldValidated":false,"rawEventCode":"EQ20260810COL","modelScore":null}},{"type":"Feature","geometry":{"type":"Point","coordinates":[-75.7809601589999,5.247382560000062]},"properties":{"externalId":"unosat-anserma-0019","damageLevel":"posible_dano","rawLabel":"Possible Damage","fieldValidated":false,"rawEventCode":"EQ20260810COL","modelScore":null}},{"type":"Feature","geometry":{"type":"Point","coordinates":[-75.78238122599993,5.248105499000076]},"properties":{"externalId":"unosat-anserma-0020","damageLevel":"posible_dano","rawLabel":"Possible Damage","fieldValidated":false,"rawEventCode":"EQ20260810COL","modelScore":null}},{"type":"Feature","geometry":{"type":"Point","coordinates":[-75.7792251539999,5.246130348000065]},"properties":{"externalId":"unosat-anserma-0021","damageLevel":"posible_dano","rawLabel":"Possible Damage","fieldValidated":false,"rawEventCode":"EQ20260810COL","modelScore":null}},{"type":"Feature","geometry":{"type":"Point","coordinates":[-75.78102680099994,5.24621139900006]},"properties":{"externalId":"unosat-anserma-0022","damageLevel":"posible_dano","rawLabel":"Possible Damage","fieldValidated":false,"rawEventCode":"EQ20260810COL","modelScore":null}},{"type":"Feature","geometry":{"type":"Point","coordinates":[-75.77908848599992,5.246814285000085]},"properties":{"externalId":"unosat-anserma-0023","damageLevel":"dano","rawLabel":"Damage","fieldValidated":false,"rawEventCode":"EQ20260810COL","modelScore":null}},{"type":"Feature","geometry":{"type":"Point","coordinates":[-75.78053124099995,5.245809479000059]},"properties":{"externalId":"unosat-anserma-0024","damageLevel":"posible_dano","rawLabel":"Possible Damage","fieldValidated":false,"rawEventCode":"EQ20260810COL","modelScore":null}},{"type":"Feature","geometry":{"type":"Point","coordinates":[-75.77981275399992,5.24611307300006]},"properties":{"externalId":"unosat-anserma-0025","damageLevel":"posible_dano","rawLabel":"Possible Damage","fieldValidated":false,"rawEventCode":"EQ20260810COL","modelScore":null}},{"type":"Feature","geometry":{"type":"Point","coordinates":[-75.78312266199993,5.244148623000058]},"properties":{"externalId":"unosat-anserma-0026","damageLevel":"posible_dano","rawLabel":"Possible Damage","fieldValidated":false,"rawEventCode":"EQ20260810COL","modelScore":null}},{"type":"Feature","geometry":{"type":"Point","coordinates":[-75.78328457399994,5.243861680000066]},"properties":{"externalId":"unosat-anserma-0027","damageLevel":"posible_dano","rawLabel":"Possible Damage","fieldValidated":false,"rawEventCode":"EQ20260810COL","modelScore":null}},{"type":"Feature","geometry":{"type":"Point","coordinates":[-75.78323525299993,5.24401062600009]},"properties":{"externalId":"unosat-anserma-0028","damageLevel":"posible_dano","rawLabel":"Possible Damage","fieldValidated":false,"rawEventCode":"EQ20260810COL","modelScore":null}},{"type":"Feature","geometry":{"type":"Point","coordinates":[-75.7824202839999,5.242394095000066]},"properties":{"externalId":"unosat-anserma-0029","damageLevel":"posible_dano","rawLabel":"Possible Damage","fieldValidated":false,"rawEventCode":"EQ20260810COL","modelScore":null}},{"type":"Feature","geometry":{"type":"Point","coordinates":[-75.7825082359999,5.24234711400004]},"properties":{"externalId":"unosat-anserma-0030","damageLevel":"posible_dano","rawLabel":"Possible Damage","fieldValidated":false,"rawEventCode":"EQ20260810COL","modelScore":null}},{"type":"Feature","geometry":{"type":"Point","coordinates":[-75.78155663199993,5.240466220000087]},"properties":{"externalId":"unosat-anserma-0031","damageLevel":"posible_dano","rawLabel":"Possible Damage","fieldValidated":false,"rawEventCode":"EQ20260810COL","modelScore":null}},{"type":"Feature","geometry":{"type":"Point","coordinates":[-75.7816473229999,5.240410965000081]},"properties":{"externalId":"unosat-anserma-0032","damageLevel":"posible_dano","rawLabel":"Possible Damage","fieldValidated":false,"rawEventCode":"EQ20260810COL","modelScore":null}},{"type":"Feature","geometry":{"type":"Point","coordinates":[-75.78141094799992,5.240532573000053]},"properties":{"externalId":"unosat-anserma-0033","damageLevel":"posible_dano","rawLabel":"Possible Damage","fieldValidated":false,"rawEventCode":"EQ20260810COL","modelScore":null}},{"type":"Feature","geometry":{"type":"Point","coordinates":[-75.7796412969999,5.247756644000049]},"properties":{"externalId":"unosat-anserma-0034","damageLevel":"posible_dano","rawLabel":"Possible Damage","fieldValidated":false,"rawEventCode":"EQ20260810COL","modelScore":null}},{"type":"Feature","geometry":{"type":"Point","coordinates":[-75.77987600199992,5.247939761000055]},"properties":{"externalId":"unosat-anserma-0035","damageLevel":"posible_dano","rawLabel":"Possible Damage","fieldValidated":false,"rawEventCode":"EQ20260810COL","modelScore":null}},{"type":"Feature","geometry":{"type":"Point","coordinates":[-75.77818000799994,5.247485850000089]},"properties":{"externalId":"unosat-anserma-0036","damageLevel":"posible_dano","rawLabel":"Possible Damage","fieldValidated":false,"rawEventCode":"EQ20260810COL","modelScore":null}},{"type":"Feature","geometry":{"type":"Point","coordinates":[-75.77840753999993,5.247732738000082]},"properties":{"externalId":"unosat-anserma-0037","damageLevel":"posible_dano","rawLabel":"Possible Damage","fieldValidated":false,"rawEventCode":"EQ20260810COL","modelScore":null}},{"type":"Feature","geometry":{"type":"Point","coordinates":[-75.77915323799994,5.246728583000049]},"properties":{"externalId":"unosat-anserma-0038","damageLevel":"posible_dano","rawLabel":"Possible Damage","fieldValidated":false,"rawEventCode":"EQ20260810COL","modelScore":null}},{"type":"Feature","geometry":{"type":"Point","coordinates":[-75.77916766999994,5.246670407000067]},"properties":{"externalId":"unosat-anserma-0039","damageLevel":"posible_dano","rawLabel":"Possible Damage","fieldValidated":false,"rawEventCode":"EQ20260810COL","modelScore":null}},{"type":"Feature","geometry":{"type":"Point","coordinates":[-75.77838759499991,5.247243266000055]},"properties":{"externalId":"unosat-anserma-0040","damageLevel":"posible_dano","rawLabel":"Possible Damage","fieldValidated":false,"rawEventCode":"EQ20260810COL","modelScore":null}},{"type":"Feature","geometry":{"type":"Point","coordinates":[-75.77899093999991,5.246454958000072]},"properties":{"externalId":"unosat-anserma-0041","damageLevel":"posible_dano","rawLabel":"Possible Damage","fieldValidated":false,"rawEventCode":"EQ20260810COL","modelScore":null}},{"type":"Feature","geometry":{"type":"Point","coordinates":[-75.77969041299991,5.246308690000092]},"properties":{"externalId":"unosat-anserma-0042","damageLevel":"posible_dano","rawLabel":"Possible Damage","fieldValidated":false,"rawEventCode":"EQ20260810COL","modelScore":null}},{"type":"Feature","geometry":{"type":"Point","coordinates":[-75.77965668899992,5.246403239000074]},"properties":{"externalId":"unosat-anserma-0043","damageLevel":"posible_dano","rawLabel":"Possible Damage","fieldValidated":false,"rawEventCode":"EQ20260810COL","modelScore":null}},{"type":"Feature","geometry":{"type":"Point","coordinates":[-75.78154582099995,5.247511940000038]},"properties":{"externalId":"unosat-anserma-0044","damageLevel":"posible_dano","rawLabel":"Possible Damage","fieldValidated":false,"rawEventCode":"EQ20260810COL","modelScore":null}},{"type":"Feature","geometry":{"type":"Point","coordinates":[-75.78164728299993,5.247460925000041]},"properties":{"externalId":"unosat-anserma-0045","damageLevel":"posible_dano","rawLabel":"Possible Damage","fieldValidated":false,"rawEventCode":"EQ20260810COL","modelScore":null}},{"type":"Feature","geometry":{"type":"Point","coordinates":[-75.78171011499995,5.247446307000075]},"properties":{"externalId":"unosat-anserma-0046","damageLevel":"dano","rawLabel":"Damage","fieldValidated":false,"rawEventCode":"EQ20260810COL","modelScore":null}},{"type":"Feature","geometry":{"type":"Point","coordinates":[-75.78127350499994,5.245028147000085]},"properties":{"externalId":"unosat-anserma-0047","damageLevel":"posible_dano","rawLabel":"Possible Damage","fieldValidated":false,"rawEventCode":"EQ20260810COL","modelScore":null}},{"type":"Feature","geometry":{"type":"Point","coordinates":[-75.78087949199994,5.243086706000042]},"properties":{"externalId":"unosat-anserma-0048","damageLevel":"posible_dano","rawLabel":"Possible Damage","fieldValidated":false,"rawEventCode":"EQ20260810COL","modelScore":null}},{"type":"Feature","geometry":{"type":"Point","coordinates":[-75.78055366299992,5.243491796000058]},"properties":{"externalId":"unosat-anserma-0049","damageLevel":"posible_dano","rawLabel":"Possible Damage","fieldValidated":false,"rawEventCode":"EQ20260810COL","modelScore":null}},{"type":"Feature","geometry":{"type":"Point","coordinates":[-75.78217835599992,5.241654305000054]},"properties":{"externalId":"unosat-anserma-0050","damageLevel":"posible_dano","rawLabel":"Possible Damage","fieldValidated":false,"rawEventCode":"EQ20260810COL","modelScore":null}},{"type":"Feature","geometry":{"type":"Point","coordinates":[-75.7828313679999,5.241934585000081]},"properties":{"externalId":"unosat-anserma-0051","damageLevel":"posible_dano","rawLabel":"Possible Damage","fieldValidated":false,"rawEventCode":"EQ20260810COL","modelScore":null}},{"type":"Feature","geometry":{"type":"Point","coordinates":[-75.78278554499991,5.242019456000094]},"properties":{"externalId":"unosat-anserma-0052","damageLevel":"posible_dano","rawLabel":"Possible Damage","fieldValidated":false,"rawEventCode":"EQ20260810COL","modelScore":null}},{"type":"Feature","geometry":{"type":"Point","coordinates":[-75.78273727499993,5.242080098000088]},"properties":{"externalId":"unosat-anserma-0053","damageLevel":"posible_dano","rawLabel":"Possible Damage","fieldValidated":false,"rawEventCode":"EQ20260810COL","modelScore":null}},{"type":"Feature","geometry":{"type":"Point","coordinates":[-75.78340349599995,5.240714218000051]},"properties":{"externalId":"unosat-anserma-0054","damageLevel":"posible_dano","rawLabel":"Possible Damage","fieldValidated":false,"rawEventCode":"EQ20260810COL","modelScore":null}},{"type":"Feature","geometry":{"type":"Point","coordinates":[-75.78335986699994,5.240619766000066]},"properties":{"externalId":"unosat-anserma-0055","damageLevel":"posible_dano","rawLabel":"Possible Damage","fieldValidated":false,"rawEventCode":"EQ20260810COL","modelScore":null}},{"type":"Feature","geometry":{"type":"Point","coordinates":[-75.78531310499994,5.243350135000071]},"properties":{"externalId":"unosat-anserma-0056","damageLevel":"dano","rawLabel":"Damage","fieldValidated":false,"rawEventCode":"EQ20260810COL","modelScore":null}},{"type":"Feature","geometry":{"type":"Point","coordinates":[-75.78515579499992,5.243200091000062]},"properties":{"externalId":"unosat-anserma-0057","damageLevel":"posible_dano","rawLabel":"Possible Damage","fieldValidated":false,"rawEventCode":"EQ20260810COL","modelScore":null}},{"type":"Feature","geometry":{"type":"Point","coordinates":[-75.78522092499992,5.243090963000043]},"properties":{"externalId":"unosat-anserma-0058","damageLevel":"posible_dano","rawLabel":"Possible Damage","fieldValidated":false,"rawEventCode":"EQ20260810COL","modelScore":null}},{"type":"Feature","geometry":{"type":"Point","coordinates":[-75.78527399899991,5.243006083000068]},"properties":{"externalId":"unosat-anserma-0059","damageLevel":"posible_dano","rawLabel":"Possible Damage","fieldValidated":false,"rawEventCode":"EQ20260810COL","modelScore":null}},{"type":"Feature","geometry":{"type":"Point","coordinates":[-75.7855584859999,5.240471009000089]},"properties":{"externalId":"unosat-anserma-0060","damageLevel":"posible_dano","rawLabel":"Possible Damage","fieldValidated":false,"rawEventCode":"EQ20260810COL","modelScore":null}},{"type":"Feature","geometry":{"type":"Point","coordinates":[-75.78381323199994,5.24084350000004]},"properties":{"externalId":"unosat-anserma-0061","damageLevel":"dano","rawLabel":"Damage","fieldValidated":false,"rawEventCode":"EQ20260810COL","modelScore":null}},{"type":"Feature","geometry":{"type":"Point","coordinates":[-75.78448687199995,5.240219881000087]},"properties":{"externalId":"unosat-anserma-0062","damageLevel":"posible_dano","rawLabel":"Possible Damage","fieldValidated":false,"rawEventCode":"EQ20260810COL","modelScore":null}},{"type":"Feature","geometry":{"type":"Point","coordinates":[-75.78321433399992,5.240219809000052]},"properties":{"externalId":"unosat-anserma-0063","damageLevel":"dano","rawLabel":"Damage","fieldValidated":false,"rawEventCode":"EQ20260810COL","modelScore":null}},{"type":"Feature","geometry":{"type":"Point","coordinates":[-75.78360609799995,5.23962759200009]},"properties":{"externalId":"unosat-anserma-0064","damageLevel":"dano","rawLabel":"Damage","fieldValidated":false,"rawEventCode":"EQ20260810COL","modelScore":null}},{"type":"Feature","geometry":{"type":"Point","coordinates":[-75.7829106499999,5.238994327000057]},"properties":{"externalId":"unosat-anserma-0065","damageLevel":"posible_dano","rawLabel":"Possible Damage","fieldValidated":false,"rawEventCode":"EQ20260810COL","modelScore":null}},{"type":"Feature","geometry":{"type":"Point","coordinates":[-75.78040760499994,5.238652444000081]},"properties":{"externalId":"unosat-anserma-0066","damageLevel":"dano","rawLabel":"Damage","fieldValidated":false,"rawEventCode":"EQ20260810COL","modelScore":null}},{"type":"Feature","geometry":{"type":"Point","coordinates":[-75.78019008199993,5.238676947000044]},"properties":{"externalId":"unosat-anserma-0067","damageLevel":"posible_dano","rawLabel":"Possible Damage","fieldValidated":false,"rawEventCode":"EQ20260810COL","modelScore":null}},{"type":"Feature","geometry":{"type":"Point","coordinates":[-75.78050455399995,5.238860722000084]},"properties":{"externalId":"unosat-anserma-0068","damageLevel":"posible_dano","rawLabel":"Possible Damage","fieldValidated":false,"rawEventCode":"EQ20260810COL","modelScore":null}},{"type":"Feature","geometry":{"type":"Point","coordinates":[-75.78228002999992,5.236429046000069]},"properties":{"externalId":"unosat-anserma-0069","damageLevel":"dano","rawLabel":"Damage","fieldValidated":false,"rawEventCode":"EQ20260810COL","modelScore":null}},{"type":"Feature","geometry":{"type":"Point","coordinates":[-75.78249275999991,5.236438473000078]},"properties":{"externalId":"unosat-anserma-0070","damageLevel":"posible_dano","rawLabel":"Possible Damage","fieldValidated":false,"rawEventCode":"EQ20260810COL","modelScore":null}},{"type":"Feature","geometry":{"type":"Point","coordinates":[-75.7825548909999,5.235861662000048]},"properties":{"externalId":"unosat-anserma-0071","damageLevel":"posible_dano","rawLabel":"Possible Damage","fieldValidated":false,"rawEventCode":"EQ20260810COL","modelScore":null}},{"type":"Feature","geometry":{"type":"Point","coordinates":[-75.78258163499993,5.235985214000038]},"properties":{"externalId":"unosat-anserma-0072","damageLevel":"posible_dano","rawLabel":"Possible Damage","fieldValidated":false,"rawEventCode":"EQ20260810COL","modelScore":null}},{"type":"Feature","geometry":{"type":"Point","coordinates":[-75.78301851099991,5.23498038300005]},"properties":{"externalId":"unosat-anserma-0073","damageLevel":"posible_dano","rawLabel":"Possible Damage","fieldValidated":false,"rawEventCode":"EQ20260810COL","modelScore":null}},{"type":"Feature","geometry":{"type":"Point","coordinates":[-75.78685290199991,5.233440752000092]},"properties":{"externalId":"unosat-anserma-0074","damageLevel":"posible_dano","rawLabel":"Possible Damage","fieldValidated":false,"rawEventCode":"EQ20260810COL","modelScore":null}},{"type":"Feature","geometry":{"type":"Point","coordinates":[-75.78258272799991,5.230210154000076]},"properties":{"externalId":"unosat-anserma-0075","damageLevel":"posible_dano","rawLabel":"Possible Damage","fieldValidated":false,"rawEventCode":"EQ20260810COL","modelScore":null}},{"type":"Feature","geometry":{"type":"Point","coordinates":[-75.7824086249999,5.230159483000079]},"properties":{"externalId":"unosat-anserma-0076","damageLevel":"posible_dano","rawLabel":"Possible Damage","fieldValidated":false,"rawEventCode":"EQ20260810COL","modelScore":null}},{"type":"Feature","geometry":{"type":"Point","coordinates":[-75.7822756509999,5.230137839000065]},"properties":{"externalId":"unosat-anserma-0077","damageLevel":"posible_dano","rawLabel":"Possible Damage","fieldValidated":false,"rawEventCode":"EQ20260810COL","modelScore":null}},{"type":"Feature","geometry":{"type":"Point","coordinates":[-75.7886326169999,5.232013040000083]},"properties":{"externalId":"unosat-anserma-0078","damageLevel":"dano","rawLabel":"Damage","fieldValidated":false,"rawEventCode":"EQ20260810COL","modelScore":null}},{"type":"Feature","geometry":{"type":"Point","coordinates":[-75.78891849799993,5.230117550000045]},"properties":{"externalId":"unosat-anserma-0079","damageLevel":"posible_dano","rawLabel":"Possible Damage","fieldValidated":false,"rawEventCode":"EQ20260810COL","modelScore":null}},{"type":"Feature","geometry":{"type":"Point","coordinates":[-75.78897123699994,5.230007680000085]},"properties":{"externalId":"unosat-anserma-0080","damageLevel":"posible_dano","rawLabel":"Possible Damage","fieldValidated":false,"rawEventCode":"EQ20260810COL","modelScore":null}},{"type":"Feature","geometry":{"type":"Point","coordinates":[-75.78884285599992,5.230034346000082]},"properties":{"externalId":"unosat-anserma-0081","damageLevel":"posible_dano","rawLabel":"Possible Damage","fieldValidated":false,"rawEventCode":"EQ20260810COL","modelScore":null}},{"type":"Feature","geometry":{"type":"Point","coordinates":[-75.78903428799993,5.229083738000043]},"properties":{"externalId":"unosat-anserma-0082","damageLevel":"posible_dano","rawLabel":"Possible Damage","fieldValidated":false,"rawEventCode":"EQ20260810COL","modelScore":null}},{"type":"Feature","geometry":{"type":"Point","coordinates":[-75.78591717499995,5.228148644000044]},"properties":{"externalId":"unosat-anserma-0083","damageLevel":"posible_dano","rawLabel":"Possible Damage","fieldValidated":false,"rawEventCode":"EQ20260810COL","modelScore":null}},{"type":"Feature","geometry":{"type":"Point","coordinates":[-75.78699971999993,5.227006088000053]},"properties":{"externalId":"unosat-anserma-0084","damageLevel":"dano","rawLabel":"Damage","fieldValidated":false,"rawEventCode":"EQ20260810COL","modelScore":null}},{"type":"Feature","geometry":{"type":"Point","coordinates":[-75.78709650499991,5.227083510000057]},"properties":{"externalId":"unosat-anserma-0085","damageLevel":"dano","rawLabel":"Damage","fieldValidated":false,"rawEventCode":"EQ20260810COL","modelScore":null}},{"type":"Feature","geometry":{"type":"Point","coordinates":[-75.78691069399991,5.227335761000063]},"properties":{"externalId":"unosat-anserma-0086","damageLevel":"dano","rawLabel":"Damage","fieldValidated":false,"rawEventCode":"EQ20260810COL","modelScore":null}},{"type":"Feature","geometry":{"type":"Point","coordinates":[-75.78694677699991,5.227195168000037]},"properties":{"externalId":"unosat-anserma-0087","damageLevel":"dano","rawLabel":"Damage","fieldValidated":false,"rawEventCode":"EQ20260810COL","modelScore":null}},{"type":"Feature","geometry":{"type":"Point","coordinates":[-75.7869856669999,5.227367169000047]},"properties":{"externalId":"unosat-anserma-0088","damageLevel":"posible_dano","rawLabel":"Possible Damage","fieldValidated":false,"rawEventCode":"EQ20260810COL","modelScore":null}},{"type":"Feature","geometry":{"type":"Point","coordinates":[-75.78705803799994,5.227250763000086]},"properties":{"externalId":"unosat-anserma-0089","damageLevel":"posible_dano","rawLabel":"Possible Damage","fieldValidated":false,"rawEventCode":"EQ20260810COL","modelScore":null}},{"type":"Feature","geometry":{"type":"Point","coordinates":[-75.7869877519999,5.227100610000093]},"properties":{"externalId":"unosat-anserma-0090","damageLevel":"dano","rawLabel":"Damage","fieldValidated":false,"rawEventCode":"EQ20260810COL","modelScore":null}},{"type":"Feature","geometry":{"type":"Point","coordinates":[-75.78708695699993,5.227180452000084]},"properties":{"externalId":"unosat-anserma-0091","damageLevel":"posible_dano","rawLabel":"Possible Damage","fieldValidated":false,"rawEventCode":"EQ20260810COL","modelScore":null}},{"type":"Feature","geometry":{"type":"Point","coordinates":[-75.7902471779999,5.228040063000037]},"properties":{"externalId":"unosat-anserma-0092","damageLevel":"dano","rawLabel":"Damage","fieldValidated":false,"rawEventCode":"EQ20260810COL","modelScore":null}},{"type":"Feature","geometry":{"type":"Point","coordinates":[-75.78789382199994,5.226430656000048]},"properties":{"externalId":"unosat-anserma-0093","damageLevel":"dano","rawLabel":"Damage","fieldValidated":false,"rawEventCode":"EQ20260810COL","modelScore":null}},{"type":"Feature","geometry":{"type":"Point","coordinates":[-75.78794924499994,5.226292461000071]},"properties":{"externalId":"unosat-anserma-0094","damageLevel":"posible_dano","rawLabel":"Possible Damage","fieldValidated":false,"rawEventCode":"EQ20260810COL","modelScore":null}},{"type":"Feature","geometry":{"type":"Point","coordinates":[-75.78783111999991,5.226547051000068]},"properties":{"externalId":"unosat-anserma-0095","damageLevel":"posible_dano","rawLabel":"Possible Damage","fieldValidated":false,"rawEventCode":"EQ20260810COL","modelScore":null}},{"type":"Feature","geometry":{"type":"Point","coordinates":[-75.78755046399993,5.226339004000067]},"properties":{"externalId":"unosat-anserma-0096","damageLevel":"posible_dano","rawLabel":"Possible Damage","fieldValidated":false,"rawEventCode":"EQ20260810COL","modelScore":null}},{"type":"Feature","geometry":{"type":"Point","coordinates":[-75.79016122099995,5.227200365000044]},"properties":{"externalId":"unosat-anserma-0097","damageLevel":"posible_dano","rawLabel":"Possible Damage","fieldValidated":false,"rawEventCode":"EQ20260810COL","modelScore":null}},{"type":"Feature","geometry":{"type":"Point","coordinates":[-75.7900839859999,5.227292546000058]},"properties":{"externalId":"unosat-anserma-0098","damageLevel":"posible_dano","rawLabel":"Possible Damage","fieldValidated":false,"rawEventCode":"EQ20260810COL","modelScore":null}},{"type":"Feature","geometry":{"type":"Point","coordinates":[-75.78901665699993,5.226222814000039]},"properties":{"externalId":"unosat-anserma-0099","damageLevel":"posible_dano","rawLabel":"Possible Damage","fieldValidated":false,"rawEventCode":"EQ20260810COL","modelScore":null}},{"type":"Feature","geometry":{"type":"Point","coordinates":[-75.78898532699992,5.22629797400009]},"properties":{"externalId":"unosat-anserma-0100","damageLevel":"posible_dano","rawLabel":"Possible Damage","fieldValidated":false,"rawEventCode":"EQ20260810COL","modelScore":null}},{"type":"Feature","geometry":{"type":"Point","coordinates":[-75.78881873099994,5.22645084800007]},"properties":{"externalId":"unosat-anserma-0101","damageLevel":"posible_dano","rawLabel":"Possible Damage","fieldValidated":false,"rawEventCode":"EQ20260810COL","modelScore":null}},{"type":"Feature","geometry":{"type":"Point","coordinates":[-75.78957300499991,5.226534714000081]},"properties":{"externalId":"unosat-anserma-0102","damageLevel":"posible_dano","rawLabel":"Possible Damage","fieldValidated":false,"rawEventCode":"EQ20260810COL","modelScore":null}},{"type":"Feature","geometry":{"type":"Point","coordinates":[-75.78961156799994,5.226445005000073]},"properties":{"externalId":"unosat-anserma-0103","damageLevel":"posible_dano","rawLabel":"Possible Damage","fieldValidated":false,"rawEventCode":"EQ20260810COL","modelScore":null}}]}
