{"type":"FeatureCollection","pulso":{"source":"unosat","sourceLabel":"UNOSAT — United Nations Satellite Centre","dataset":"preliminary-satellite-derived-damage-assessment-san-jose-del-palmar-municipality-choco-dep","sourceUrl":"https://data.humdata.org/dataset/preliminary-satellite-derived-damage-assessment-san-jose-del-palmar-municipality-choco-dep","method":"analista","sensor":"Pleiades NEO","imageryDate":"2026-08-11","municipality":"MANIZALES","divipola":"17001","license":"CC BY-SA 4.0","attribution":"UNOSAT (EQ20260810COL), CC BY-SA 4.0"},"features":[{"type":"Feature","geometry":{"type":"Point","coordinates":[-75.5250867979999,5.07792472400007]},"properties":{"externalId":"unosat-manizales-0000","damageLevel":"posible_dano","rawLabel":"Possible Damage","fieldValidated":false,"rawEventCode":"EQ20260822COL","modelScore":null}},{"type":"Feature","geometry":{"type":"Point","coordinates":[-75.51638753899994,5.071562517000075]},"properties":{"externalId":"unosat-manizales-0001","damageLevel":"posible_dano","rawLabel":"Possible Damage","fieldValidated":false,"rawEventCode":"EQ20260822COL","modelScore":null}},{"type":"Feature","geometry":{"type":"Point","coordinates":[-75.51966129599992,5.070974641000078]},"properties":{"externalId":"unosat-manizales-0002","damageLevel":"posible_dano","rawLabel":"Possible Damage","fieldValidated":false,"rawEventCode":"EQ20260822COL","modelScore":null}},{"type":"Feature","geometry":{"type":"Point","coordinates":[-75.51772542399993,5.071720897000091]},"properties":{"externalId":"unosat-manizales-0003","damageLevel":"posible_dano","rawLabel":"Possible Damage","fieldValidated":false,"rawEventCode":"EQ20260822COL","modelScore":null}},{"type":"Feature","geometry":{"type":"Point","coordinates":[-75.51760833999992,5.072183033000044]},"properties":{"externalId":"unosat-manizales-0004","damageLevel":"posible_dano","rawLabel":"Possible Damage","fieldValidated":false,"rawEventCode":"EQ20260822COL","modelScore":null}},{"type":"Feature","geometry":{"type":"Point","coordinates":[-75.5154228049999,5.073316632000058]},"properties":{"externalId":"unosat-manizales-0005","damageLevel":"dano","rawLabel":"Damaged","fieldValidated":false,"rawEventCode":"EQ20260822COL","modelScore":null}},{"type":"Feature","geometry":{"type":"Point","coordinates":[-75.5259756239999,5.088028442000052]},"properties":{"externalId":"unosat-manizales-0006","damageLevel":"posible_dano","rawLabel":"Possible Damage","fieldValidated":false,"rawEventCode":"EQ20260822COL","modelScore":null}},{"type":"Feature","geometry":{"type":"Point","coordinates":[-75.52625984699995,5.079317382000056]},"properties":{"externalId":"unosat-manizales-0007","damageLevel":"posible_dano","rawLabel":"Possible Damage","fieldValidated":false,"rawEventCode":"EQ20260822COL","modelScore":null}},{"type":"Feature","geometry":{"type":"Point","coordinates":[-75.5044375139999,5.064650265000068]},"properties":{"externalId":"unosat-manizales-0008","damageLevel":"posible_dano","rawLabel":"Possible Damage","fieldValidated":false,"rawEventCode":"EQ20260810COL","modelScore":null}},{"type":"Feature","geometry":{"type":"Point","coordinates":[-75.50247917899992,5.06464647100006]},"properties":{"externalId":"unosat-manizales-0009","damageLevel":"posible_dano","rawLabel":"Possible Damage","fieldValidated":false,"rawEventCode":"EQ20260810COL","modelScore":null}},{"type":"Feature","geometry":{"type":"Point","coordinates":[-75.50121691299995,5.064246905000061]},"properties":{"externalId":"unosat-manizales-0010","damageLevel":"posible_dano","rawLabel":"Possible Damage","fieldValidated":false,"rawEventCode":"EQ20260810COL","modelScore":null}},{"type":"Feature","geometry":{"type":"Point","coordinates":[-75.49781769399993,5.063701881000043]},"properties":{"externalId":"unosat-manizales-0011","damageLevel":"dano","rawLabel":"Damaged","fieldValidated":false,"rawEventCode":"EQ20260810COL","modelScore":null}},{"type":"Feature","geometry":{"type":"Point","coordinates":[-75.49770303899993,5.064001492000045]},"properties":{"externalId":"unosat-manizales-0012","damageLevel":"posible_dano","rawLabel":"Possible Damage","fieldValidated":false,"rawEventCode":"EQ20260810COL","modelScore":null}},{"type":"Feature","geometry":{"type":"Point","coordinates":[-75.49743764899995,5.063645459000043]},"properties":{"externalId":"unosat-manizales-0013","damageLevel":"dano","rawLabel":"Damaged","fieldValidated":false,"rawEventCode":"EQ20260810COL","modelScore":null}},{"type":"Feature","geometry":{"type":"Point","coordinates":[-75.49742355199993,5.06370041200006]},"properties":{"externalId":"unosat-manizales-0014","damageLevel":"posible_dano","rawLabel":"Possible Damage","fieldValidated":false,"rawEventCode":"EQ20260810COL","modelScore":null}},{"type":"Feature","geometry":{"type":"Point","coordinates":[-75.49649160599995,5.06536002100006]},"properties":{"externalId":"unosat-manizales-0015","damageLevel":"dano","rawLabel":"Damaged","fieldValidated":false,"rawEventCode":"EQ20260810COL","modelScore":null}},{"type":"Feature","geometry":{"type":"Point","coordinates":[-75.49629706899992,5.065205978000051]},"properties":{"externalId":"unosat-manizales-0016","damageLevel":"posible_dano","rawLabel":"Possible Damage","fieldValidated":false,"rawEventCode":"EQ20260810COL","modelScore":null}},{"type":"Feature","geometry":{"type":"Point","coordinates":[-75.49890728199995,5.067103900000063]},"properties":{"externalId":"unosat-manizales-0017","damageLevel":"posible_dano","rawLabel":"Possible Damage","fieldValidated":false,"rawEventCode":"EQ20260810COL","modelScore":null}},{"type":"Feature","geometry":{"type":"Point","coordinates":[-75.49881010299993,5.067144738000081]},"properties":{"externalId":"unosat-manizales-0018","damageLevel":"posible_dano","rawLabel":"Possible Damage","fieldValidated":false,"rawEventCode":"EQ20260810COL","modelScore":null}},{"type":"Feature","geometry":{"type":"Point","coordinates":[-75.49925181299994,5.066944125000077]},"properties":{"externalId":"unosat-manizales-0019","damageLevel":"posible_dano","rawLabel":"Possible Damage","fieldValidated":false,"rawEventCode":"EQ20260810COL","modelScore":null}},{"type":"Feature","geometry":{"type":"Point","coordinates":[-75.49928887899995,5.066878520000046]},"properties":{"externalId":"unosat-manizales-0020","damageLevel":"posible_dano","rawLabel":"Possible Damage","fieldValidated":false,"rawEventCode":"EQ20260810COL","modelScore":null}},{"type":"Feature","geometry":{"type":"Point","coordinates":[-75.49935950799994,5.066788077000069]},"properties":{"externalId":"unosat-manizales-0021","damageLevel":"posible_dano","rawLabel":"Possible Damage","fieldValidated":false,"rawEventCode":"EQ20260810COL","modelScore":null}},{"type":"Feature","geometry":{"type":"Point","coordinates":[-75.50030494599991,5.066592392000075]},"properties":{"externalId":"unosat-manizales-0022","damageLevel":"posible_dano","rawLabel":"Possible Damage","fieldValidated":false,"rawEventCode":"EQ20260810COL","modelScore":null}},{"type":"Feature","geometry":{"type":"Point","coordinates":[-75.49980291599991,5.06649707400004]},"properties":{"externalId":"unosat-manizales-0023","damageLevel":"posible_dano","rawLabel":"Possible Damage","fieldValidated":false,"rawEventCode":"EQ20260810COL","modelScore":null}},{"type":"Feature","geometry":{"type":"Point","coordinates":[-75.49969866499993,5.066534374000071]},"properties":{"externalId":"unosat-manizales-0024","damageLevel":"posible_dano","rawLabel":"Possible Damage","fieldValidated":false,"rawEventCode":"EQ20260810COL","modelScore":null}},{"type":"Feature","geometry":{"type":"Point","coordinates":[-75.49304383599991,5.064282454000079]},"properties":{"externalId":"unosat-manizales-0025","damageLevel":"dano","rawLabel":"Damaged","fieldValidated":false,"rawEventCode":"EQ20260810COL","modelScore":null}},{"type":"Feature","geometry":{"type":"Point","coordinates":[-75.49383323699993,5.064627663000067]},"properties":{"externalId":"unosat-manizales-0026","damageLevel":"posible_dano","rawLabel":"Possible Damage","fieldValidated":false,"rawEventCode":"EQ20260810COL","modelScore":null}},{"type":"Feature","geometry":{"type":"Point","coordinates":[-75.49469886399993,5.065114563000066]},"properties":{"externalId":"unosat-manizales-0027","damageLevel":"dano","rawLabel":"Damaged","fieldValidated":false,"rawEventCode":"EQ20260810COL","modelScore":null}},{"type":"Feature","geometry":{"type":"Point","coordinates":[-75.4947750039999,5.065144101000044]},"properties":{"externalId":"unosat-manizales-0028","damageLevel":"dano","rawLabel":"Damaged","fieldValidated":false,"rawEventCode":"EQ20260810COL","modelScore":null}},{"type":"Feature","geometry":{"type":"Point","coordinates":[-75.49354111799994,5.066576575000056]},"properties":{"externalId":"unosat-manizales-0029","damageLevel":"dano","rawLabel":"Damaged","fieldValidated":false,"rawEventCode":"EQ20260810COL","modelScore":null}},{"type":"Feature","geometry":{"type":"Point","coordinates":[-75.4934851939999,5.066575060000048]},"properties":{"externalId":"unosat-manizales-0030","damageLevel":"dano","rawLabel":"Damaged","fieldValidated":false,"rawEventCode":"EQ20260810COL","modelScore":null}},{"type":"Feature","geometry":{"type":"Point","coordinates":[-75.4938578199999,5.066316197000049]},"properties":{"externalId":"unosat-manizales-0031","damageLevel":"posible_dano","rawLabel":"Possible Damage","fieldValidated":false,"rawEventCode":"EQ20260810COL","modelScore":null}},{"type":"Feature","geometry":{"type":"Point","coordinates":[-75.49327077799995,5.066519146000076]},"properties":{"externalId":"unosat-manizales-0032","damageLevel":"posible_dano","rawLabel":"Possible Damage","fieldValidated":false,"rawEventCode":"EQ20260810COL","modelScore":null}},{"type":"Feature","geometry":{"type":"Point","coordinates":[-75.49587088599992,5.066213503000085]},"properties":{"externalId":"unosat-manizales-0033","damageLevel":"dano","rawLabel":"Damaged","fieldValidated":false,"rawEventCode":"EQ20260810COL","modelScore":null}},{"type":"Feature","geometry":{"type":"Point","coordinates":[-75.49593632999995,5.066094191000047]},"properties":{"externalId":"unosat-manizales-0034","damageLevel":"posible_dano","rawLabel":"Possible Damage","fieldValidated":false,"rawEventCode":"EQ20260810COL","modelScore":null}},{"type":"Feature","geometry":{"type":"Point","coordinates":[-75.49495266199995,5.065252810000061]},"properties":{"externalId":"unosat-manizales-0035","damageLevel":"posible_dano","rawLabel":"Possible Damage","fieldValidated":false,"rawEventCode":"EQ20260810COL","modelScore":null}},{"type":"Feature","geometry":{"type":"Point","coordinates":[-75.49512262699994,5.065330566000057]},"properties":{"externalId":"unosat-manizales-0036","damageLevel":"posible_dano","rawLabel":"Possible Damage","fieldValidated":false,"rawEventCode":"EQ20260810COL","modelScore":null}},{"type":"Feature","geometry":{"type":"Point","coordinates":[-75.49521732099993,5.065371870000092]},"properties":{"externalId":"unosat-manizales-0037","damageLevel":"posible_dano","rawLabel":"Possible Damage","fieldValidated":false,"rawEventCode":"EQ20260810COL","modelScore":null}},{"type":"Feature","geometry":{"type":"Point","coordinates":[-75.49711420299991,5.066840207000041]},"properties":{"externalId":"unosat-manizales-0038","damageLevel":"posible_dano","rawLabel":"Possible Damage","fieldValidated":false,"rawEventCode":"EQ20260810COL","modelScore":null}},{"type":"Feature","geometry":{"type":"Point","coordinates":[-75.4969682439999,5.066922877000081]},"properties":{"externalId":"unosat-manizales-0039","damageLevel":"posible_dano","rawLabel":"Possible Damage","fieldValidated":false,"rawEventCode":"EQ20260810COL","modelScore":null}},{"type":"Feature","geometry":{"type":"Point","coordinates":[-75.49690300499992,5.06692915800005]},"properties":{"externalId":"unosat-manizales-0040","damageLevel":"posible_dano","rawLabel":"Possible Damage","fieldValidated":false,"rawEventCode":"EQ20260810COL","modelScore":null}},{"type":"Feature","geometry":{"type":"Point","coordinates":[-75.49776654399994,5.066710416000092]},"properties":{"externalId":"unosat-manizales-0041","damageLevel":"posible_dano","rawLabel":"Possible Damage","fieldValidated":false,"rawEventCode":"EQ20260810COL","modelScore":null}},{"type":"Feature","geometry":{"type":"Point","coordinates":[-75.49769978799992,5.066764987000056]},"properties":{"externalId":"unosat-manizales-0042","damageLevel":"posible_dano","rawLabel":"Possible Damage","fieldValidated":false,"rawEventCode":"EQ20260810COL","modelScore":null}},{"type":"Feature","geometry":{"type":"Point","coordinates":[-75.49024108599991,5.063784559000055]},"properties":{"externalId":"unosat-manizales-0043","damageLevel":"posible_dano","rawLabel":"Possible Damage","fieldValidated":false,"rawEventCode":"EQ20260810COL","modelScore":null}},{"type":"Feature","geometry":{"type":"Point","coordinates":[-75.49052625699994,5.064971315000093]},"properties":{"externalId":"unosat-manizales-0044","damageLevel":"posible_dano","rawLabel":"Possible Damage","fieldValidated":false,"rawEventCode":"EQ20260810COL","modelScore":null}},{"type":"Feature","geometry":{"type":"Point","coordinates":[-75.49050144299991,5.065025854000055]},"properties":{"externalId":"unosat-manizales-0045","damageLevel":"posible_dano","rawLabel":"Possible Damage","fieldValidated":false,"rawEventCode":"EQ20260810COL","modelScore":null}},{"type":"Feature","geometry":{"type":"Point","coordinates":[-75.49031991099992,5.065315724000072]},"properties":{"externalId":"unosat-manizales-0046","damageLevel":"dano","rawLabel":"Damaged","fieldValidated":false,"rawEventCode":"EQ20260810COL","modelScore":null}},{"type":"Feature","geometry":{"type":"Point","coordinates":[-75.49440261599995,5.067759773000091]},"properties":{"externalId":"unosat-manizales-0047","damageLevel":"posible_dano","rawLabel":"Possible Damage","fieldValidated":false,"rawEventCode":"EQ20260810COL","modelScore":null}},{"type":"Feature","geometry":{"type":"Point","coordinates":[-75.49444475399991,5.06801676200007]},"properties":{"externalId":"unosat-manizales-0048","damageLevel":"posible_dano","rawLabel":"Possible Damage","fieldValidated":false,"rawEventCode":"EQ20260810COL","modelScore":null}},{"type":"Feature","geometry":{"type":"Point","coordinates":[-75.47893621999992,5.066394201000094]},"properties":{"externalId":"unosat-manizales-0049","damageLevel":"posible_dano","rawLabel":"Possible Damage","fieldValidated":false,"rawEventCode":"EQ20260810COL","modelScore":null}},{"type":"Feature","geometry":{"type":"Point","coordinates":[-75.47888041099992,5.06641858100005]},"properties":{"externalId":"unosat-manizales-0050","damageLevel":"posible_dano","rawLabel":"Possible Damage","fieldValidated":false,"rawEventCode":"EQ20260810COL","modelScore":null}},{"type":"Feature","geometry":{"type":"Point","coordinates":[-75.47901386099994,5.066352767000069]},"properties":{"externalId":"unosat-manizales-0051","damageLevel":"posible_dano","rawLabel":"Possible Damage","fieldValidated":false,"rawEventCode":"EQ20260810COL","modelScore":null}},{"type":"Feature","geometry":{"type":"Point","coordinates":[-75.47905753999993,5.066338131000066]},"properties":{"externalId":"unosat-manizales-0052","damageLevel":"posible_dano","rawLabel":"Possible Damage","fieldValidated":false,"rawEventCode":"EQ20260810COL","modelScore":null}},{"type":"Feature","geometry":{"type":"Point","coordinates":[-75.47870747299993,5.065596044000074]},"properties":{"externalId":"unosat-manizales-0053","damageLevel":"posible_dano","rawLabel":"Possible Damage","fieldValidated":false,"rawEventCode":"EQ20260810COL","modelScore":null}},{"type":"Feature","geometry":{"type":"Point","coordinates":[-75.47861525699994,5.065622886000085]},"properties":{"externalId":"unosat-manizales-0054","damageLevel":"posible_dano","rawLabel":"Possible Damage","fieldValidated":false,"rawEventCode":"EQ20260810COL","modelScore":null}},{"type":"Feature","geometry":{"type":"Point","coordinates":[-75.47572383999994,5.064826691000064]},"properties":{"externalId":"unosat-manizales-0055","damageLevel":"posible_dano","rawLabel":"Possible Damage","fieldValidated":false,"rawEventCode":"EQ20260810COL","modelScore":null}},{"type":"Feature","geometry":{"type":"Point","coordinates":[-75.47520191099994,5.065256905000069]},"properties":{"externalId":"unosat-manizales-0056","damageLevel":"posible_dano","rawLabel":"Possible Damage","fieldValidated":false,"rawEventCode":"EQ20260810COL","modelScore":null}},{"type":"Feature","geometry":{"type":"Point","coordinates":[-75.47410648699991,5.067036614000074]},"properties":{"externalId":"unosat-manizales-0057","damageLevel":"posible_dano","rawLabel":"Possible Damage","fieldValidated":false,"rawEventCode":"EQ20260810COL","modelScore":null}},{"type":"Feature","geometry":{"type":"Point","coordinates":[-75.4741126699999,5.06699455100005]},"properties":{"externalId":"unosat-manizales-0058","damageLevel":"posible_dano","rawLabel":"Possible Damage","fieldValidated":false,"rawEventCode":"EQ20260810COL","modelScore":null}},{"type":"Feature","geometry":{"type":"Point","coordinates":[-75.47332332099995,5.068847246000075]},"properties":{"externalId":"unosat-manizales-0059","damageLevel":"posible_dano","rawLabel":"Possible Damage","fieldValidated":false,"rawEventCode":"EQ20260810COL","modelScore":null}},{"type":"Feature","geometry":{"type":"Point","coordinates":[-75.47134270599992,5.068873616000076]},"properties":{"externalId":"unosat-manizales-0060","damageLevel":"dano","rawLabel":"Damaged","fieldValidated":false,"rawEventCode":"EQ20260810COL","modelScore":null}},{"type":"Feature","geometry":{"type":"Point","coordinates":[-75.47154151199993,5.068826740000077]},"properties":{"externalId":"unosat-manizales-0061","damageLevel":"posible_dano","rawLabel":"Possible Damage","fieldValidated":false,"rawEventCode":"EQ20260810COL","modelScore":null}},{"type":"Feature","geometry":{"type":"Point","coordinates":[-75.47299088299991,5.068844374000093]},"properties":{"externalId":"unosat-manizales-0062","damageLevel":"posible_dano","rawLabel":"Possible Damage","fieldValidated":false,"rawEventCode":"EQ20260810COL","modelScore":null}},{"type":"Feature","geometry":{"type":"Point","coordinates":[-75.47295362699992,5.068880229000058]},"properties":{"externalId":"unosat-manizales-0063","damageLevel":"posible_dano","rawLabel":"Possible Damage","fieldValidated":false,"rawEventCode":"EQ20260810COL","modelScore":null}},{"type":"Feature","geometry":{"type":"Point","coordinates":[-75.47331871499995,5.068922020000059]},"properties":{"externalId":"unosat-manizales-0064","damageLevel":"posible_dano","rawLabel":"Possible Damage","fieldValidated":false,"rawEventCode":"EQ20260810COL","modelScore":null}},{"type":"Feature","geometry":{"type":"Point","coordinates":[-75.47263984799991,5.068902266000066]},"properties":{"externalId":"unosat-manizales-0065","damageLevel":"posible_dano","rawLabel":"Possible Damage","fieldValidated":false,"rawEventCode":"EQ20260810COL","modelScore":null}},{"type":"Feature","geometry":{"type":"Point","coordinates":[-75.47261657799993,5.068945899000084]},"properties":{"externalId":"unosat-manizales-0066","damageLevel":"posible_dano","rawLabel":"Possible Damage","fieldValidated":false,"rawEventCode":"EQ20260810COL","modelScore":null}},{"type":"Feature","geometry":{"type":"Point","coordinates":[-75.4725808849999,5.068995772000051]},"properties":{"externalId":"unosat-manizales-0067","damageLevel":"posible_dano","rawLabel":"Possible Damage","fieldValidated":false,"rawEventCode":"EQ20260810COL","modelScore":null}},{"type":"Feature","geometry":{"type":"Point","coordinates":[-75.47253585399994,5.069020728000055]},"properties":{"externalId":"unosat-manizales-0068","damageLevel":"posible_dano","rawLabel":"Possible Damage","fieldValidated":false,"rawEventCode":"EQ20260810COL","modelScore":null}},{"type":"Feature","geometry":{"type":"Point","coordinates":[-75.47368052899992,5.070865777000051]},"properties":{"externalId":"unosat-manizales-0069","damageLevel":"posible_dano","rawLabel":"Possible Damage","fieldValidated":false,"rawEventCode":"EQ20260810COL","modelScore":null}},{"type":"Feature","geometry":{"type":"Point","coordinates":[-75.47369300499992,5.070932749000065]},"properties":{"externalId":"unosat-manizales-0070","damageLevel":"posible_dano","rawLabel":"Possible Damage","fieldValidated":false,"rawEventCode":"EQ20260810COL","modelScore":null}},{"type":"Feature","geometry":{"type":"Point","coordinates":[-75.47381310999992,5.070805805000077]},"properties":{"externalId":"unosat-manizales-0071","damageLevel":"posible_dano","rawLabel":"Possible Damage","fieldValidated":false,"rawEventCode":"EQ20260810COL","modelScore":null}},{"type":"Feature","geometry":{"type":"Point","coordinates":[-75.47407766299995,5.07078127200009]},"properties":{"externalId":"unosat-manizales-0072","damageLevel":"posible_dano","rawLabel":"Possible Damage","fieldValidated":false,"rawEventCode":"EQ20260810COL","modelScore":null}},{"type":"Feature","geometry":{"type":"Point","coordinates":[-75.47865894199992,5.065615551000064]},"properties":{"externalId":"unosat-manizales-0073","damageLevel":"posible_dano","rawLabel":"Possible Damage","fieldValidated":false,"rawEventCode":"EQ20260810COL","modelScore":null}},{"type":"Feature","geometry":{"type":"Point","coordinates":[-75.47899399799991,5.065484651000077]},"properties":{"externalId":"unosat-manizales-0074","damageLevel":"posible_dano","rawLabel":"Possible Damage","fieldValidated":false,"rawEventCode":"EQ20260810COL","modelScore":null}},{"type":"Feature","geometry":{"type":"Point","coordinates":[-75.47903592099993,5.065458139000043]},"properties":{"externalId":"unosat-manizales-0075","damageLevel":"posible_dano","rawLabel":"Possible Damage","fieldValidated":false,"rawEventCode":"EQ20260810COL","modelScore":null}},{"type":"Feature","geometry":{"type":"Point","coordinates":[-75.47911511399991,5.065414464000071]},"properties":{"externalId":"unosat-manizales-0076","damageLevel":"posible_dano","rawLabel":"Possible Damage","fieldValidated":false,"rawEventCode":"EQ20260810COL","modelScore":null}},{"type":"Feature","geometry":{"type":"Point","coordinates":[-75.4870152499999,5.066692118000049]},"properties":{"externalId":"unosat-manizales-0077","damageLevel":"posible_dano","rawLabel":"Possible Damage","fieldValidated":false,"rawEventCode":"EQ20260810COL","modelScore":null}},{"type":"Feature","geometry":{"type":"Point","coordinates":[-75.48644730599995,5.065432360000045]},"properties":{"externalId":"unosat-manizales-0078","damageLevel":"posible_dano","rawLabel":"Possible Damage","fieldValidated":false,"rawEventCode":"EQ20260810COL","modelScore":null}},{"type":"Feature","geometry":{"type":"Point","coordinates":[-75.48637739399993,5.065421508000043]},"properties":{"externalId":"unosat-manizales-0079","damageLevel":"posible_dano","rawLabel":"Possible Damage","fieldValidated":false,"rawEventCode":"EQ20260810COL","modelScore":null}},{"type":"Feature","geometry":{"type":"Point","coordinates":[-75.48619329899992,5.066441945000065]},"properties":{"externalId":"unosat-manizales-0080","damageLevel":"dano","rawLabel":"Damaged","fieldValidated":false,"rawEventCode":"EQ20260810COL","modelScore":null}},{"type":"Feature","geometry":{"type":"Point","coordinates":[-75.48966590499992,5.067361488000074]},"properties":{"externalId":"unosat-manizales-0081","damageLevel":"posible_dano","rawLabel":"Possible Damage","fieldValidated":false,"rawEventCode":"EQ20260810COL","modelScore":null}},{"type":"Feature","geometry":{"type":"Point","coordinates":[-75.48961622799993,5.067405142000041]},"properties":{"externalId":"unosat-manizales-0082","damageLevel":"posible_dano","rawLabel":"Possible Damage","fieldValidated":false,"rawEventCode":"EQ20260810COL","modelScore":null}},{"type":"Feature","geometry":{"type":"Point","coordinates":[-75.48702216799995,5.067632967000065]},"properties":{"externalId":"unosat-manizales-0083","damageLevel":"dano","rawLabel":"Damaged","fieldValidated":false,"rawEventCode":"EQ20260810COL","modelScore":null}},{"type":"Feature","geometry":{"type":"Point","coordinates":[-75.48857133999991,5.06816609200007]},"properties":{"externalId":"unosat-manizales-0084","damageLevel":"posible_dano","rawLabel":"Possible Damage","fieldValidated":false,"rawEventCode":"EQ20260810COL","modelScore":null}},{"type":"Feature","geometry":{"type":"Point","coordinates":[-75.49313264499995,5.068729636000057]},"properties":{"externalId":"unosat-manizales-0085","damageLevel":"dano","rawLabel":"Damaged","fieldValidated":false,"rawEventCode":"EQ20260810COL","modelScore":null}},{"type":"Feature","geometry":{"type":"Point","coordinates":[-75.49301361699992,5.068600935000063]},"properties":{"externalId":"unosat-manizales-0086","damageLevel":"posible_dano","rawLabel":"Possible Damage","fieldValidated":false,"rawEventCode":"EQ20260810COL","modelScore":null}},{"type":"Feature","geometry":{"type":"Point","coordinates":[-75.49323579399993,5.069548910000037]},"properties":{"externalId":"unosat-manizales-0087","damageLevel":"posible_dano","rawLabel":"Possible Damage","fieldValidated":false,"rawEventCode":"EQ20260810COL","modelScore":null}},{"type":"Feature","geometry":{"type":"Point","coordinates":[-75.49237371099991,5.069646145000092]},"properties":{"externalId":"unosat-manizales-0088","damageLevel":"posible_dano","rawLabel":"Possible Damage","fieldValidated":false,"rawEventCode":"EQ20260810COL","modelScore":null}},{"type":"Feature","geometry":{"type":"Point","coordinates":[-75.49229293799993,5.069653995000067]},"properties":{"externalId":"unosat-manizales-0089","damageLevel":"posible_dano","rawLabel":"Possible Damage","fieldValidated":false,"rawEventCode":"EQ20260810COL","modelScore":null}},{"type":"Feature","geometry":{"type":"Point","coordinates":[-75.49219662299993,5.069650953000064]},"properties":{"externalId":"unosat-manizales-0090","damageLevel":"posible_dano","rawLabel":"Possible Damage","fieldValidated":false,"rawEventCode":"EQ20260810COL","modelScore":null}},{"type":"Feature","geometry":{"type":"Point","coordinates":[-75.4925967339999,5.069130743000073]},"properties":{"externalId":"unosat-manizales-0091","damageLevel":"posible_dano","rawLabel":"Possible Damage","fieldValidated":false,"rawEventCode":"EQ20260810COL","modelScore":null}},{"type":"Feature","geometry":{"type":"Point","coordinates":[-75.49255856699995,5.069144171000062]},"properties":{"externalId":"unosat-manizales-0092","damageLevel":"posible_dano","rawLabel":"Possible Damage","fieldValidated":false,"rawEventCode":"EQ20260810COL","modelScore":null}},{"type":"Feature","geometry":{"type":"Point","coordinates":[-75.49164724399992,5.06945834000004]},"properties":{"externalId":"unosat-manizales-0093","damageLevel":"posible_dano","rawLabel":"Possible Damage","fieldValidated":false,"rawEventCode":"EQ20260810COL","modelScore":null}},{"type":"Feature","geometry":{"type":"Point","coordinates":[-75.49172180599993,5.069454295000071]},"properties":{"externalId":"unosat-manizales-0094","damageLevel":"posible_dano","rawLabel":"Possible Damage","fieldValidated":false,"rawEventCode":"EQ20260810COL","modelScore":null}},{"type":"Feature","geometry":{"type":"Point","coordinates":[-75.49177349899992,5.069447278000041]},"properties":{"externalId":"unosat-manizales-0095","damageLevel":"posible_dano","rawLabel":"Possible Damage","fieldValidated":false,"rawEventCode":"EQ20260810COL","modelScore":null}},{"type":"Feature","geometry":{"type":"Point","coordinates":[-75.49183314499993,5.069439257000056]},"properties":{"externalId":"unosat-manizales-0096","damageLevel":"posible_dano","rawLabel":"Possible Damage","fieldValidated":false,"rawEventCode":"EQ20260810COL","modelScore":null}},{"type":"Feature","geometry":{"type":"Point","coordinates":[-75.49189676799995,5.069432230000075]},"properties":{"externalId":"unosat-manizales-0097","damageLevel":"posible_dano","rawLabel":"Possible Damage","fieldValidated":false,"rawEventCode":"EQ20260810COL","modelScore":null}},{"type":"Feature","geometry":{"type":"Point","coordinates":[-75.49199320199995,5.069427172000076]},"properties":{"externalId":"unosat-manizales-0098","damageLevel":"posible_dano","rawLabel":"Possible Damage","fieldValidated":false,"rawEventCode":"EQ20260810COL","modelScore":null}},{"type":"Feature","geometry":{"type":"Point","coordinates":[-75.49208168199993,5.069423117000042]},"properties":{"externalId":"unosat-manizales-0099","damageLevel":"posible_dano","rawLabel":"Possible Damage","fieldValidated":false,"rawEventCode":"EQ20260810COL","modelScore":null}},{"type":"Feature","geometry":{"type":"Point","coordinates":[-75.49158380499995,5.06970861800005]},"properties":{"externalId":"unosat-manizales-0100","damageLevel":"posible_dano","rawLabel":"Possible Damage","fieldValidated":false,"rawEventCode":"EQ20260810COL","modelScore":null}},{"type":"Feature","geometry":{"type":"Point","coordinates":[-75.49166731799994,5.069709551000074]},"properties":{"externalId":"unosat-manizales-0101","damageLevel":"posible_dano","rawLabel":"Possible Damage","fieldValidated":false,"rawEventCode":"EQ20260810COL","modelScore":null}},{"type":"Feature","geometry":{"type":"Point","coordinates":[-75.49176375299993,5.069706487000076]},"properties":{"externalId":"unosat-manizales-0102","damageLevel":"posible_dano","rawLabel":"Possible Damage","fieldValidated":false,"rawEventCode":"EQ20260810COL","modelScore":null}},{"type":"Feature","geometry":{"type":"Point","coordinates":[-75.49184130099991,5.069706428000075]},"properties":{"externalId":"unosat-manizales-0103","damageLevel":"posible_dano","rawLabel":"Possible Damage","fieldValidated":false,"rawEventCode":"EQ20260810COL","modelScore":null}},{"type":"Feature","geometry":{"type":"Point","coordinates":[-75.49192083199995,5.069700386000079]},"properties":{"externalId":"unosat-manizales-0104","damageLevel":"posible_dano","rawLabel":"Possible Damage","fieldValidated":false,"rawEventCode":"EQ20260810COL","modelScore":null}},{"type":"Feature","geometry":{"type":"Point","coordinates":[-75.49206558999992,5.069177884000055]},"properties":{"externalId":"unosat-manizales-0105","damageLevel":"posible_dano","rawLabel":"Possible Damage","fieldValidated":false,"rawEventCode":"EQ20260810COL","modelScore":null}},{"type":"Feature","geometry":{"type":"Point","coordinates":[-75.49196716699993,5.069181946000072]},"properties":{"externalId":"unosat-manizales-0106","damageLevel":"posible_dano","rawLabel":"Possible Damage","fieldValidated":false,"rawEventCode":"EQ20260810COL","modelScore":null}},{"type":"Feature","geometry":{"type":"Point","coordinates":[-75.49187868899992,5.069188992000079]},"properties":{"externalId":"unosat-manizales-0107","damageLevel":"posible_dano","rawLabel":"Possible Damage","fieldValidated":false,"rawEventCode":"EQ20260810COL","modelScore":null}},{"type":"Feature","geometry":{"type":"Point","coordinates":[-75.49213212099994,5.071529139000063]},"properties":{"externalId":"unosat-manizales-0108","damageLevel":"posible_dano","rawLabel":"Possible Damage","fieldValidated":false,"rawEventCode":"EQ20260810COL","modelScore":null}},{"type":"Feature","geometry":{"type":"Point","coordinates":[-75.49220584599993,5.071526344000063]},"properties":{"externalId":"unosat-manizales-0109","damageLevel":"posible_dano","rawLabel":"Possible Damage","fieldValidated":false,"rawEventCode":"EQ20260810COL","modelScore":null}},{"type":"Feature","geometry":{"type":"Point","coordinates":[-75.49227137299994,5.071513973000037]},"properties":{"externalId":"unosat-manizales-0110","damageLevel":"posible_dano","rawLabel":"Possible Damage","fieldValidated":false,"rawEventCode":"EQ20260810COL","modelScore":null}},{"type":"Feature","geometry":{"type":"Point","coordinates":[-75.4924788909999,5.07149875500005]},"properties":{"externalId":"unosat-manizales-0111","damageLevel":"posible_dano","rawLabel":"Possible Damage","fieldValidated":false,"rawEventCode":"EQ20260810COL","modelScore":null}},{"type":"Feature","geometry":{"type":"Point","coordinates":[-75.49130026499995,5.071038273000056]},"properties":{"externalId":"unosat-manizales-0112","damageLevel":"posible_dano","rawLabel":"Possible Damage","fieldValidated":false,"rawEventCode":"EQ20260810COL","modelScore":null}},{"type":"Feature","geometry":{"type":"Point","coordinates":[-75.48906291599991,5.071601291000093]},"properties":{"externalId":"unosat-manizales-0113","damageLevel":"posible_dano","rawLabel":"Possible Damage","fieldValidated":false,"rawEventCode":"EQ20260810COL","modelScore":null}},{"type":"Feature","geometry":{"type":"Point","coordinates":[-75.48980064099993,5.072194912000043]},"properties":{"externalId":"unosat-manizales-0114","damageLevel":"dano","rawLabel":"Damaged","fieldValidated":false,"rawEventCode":"EQ20260810COL","modelScore":null}},{"type":"Feature","geometry":{"type":"Point","coordinates":[-75.48974021499993,5.071728102000066]},"properties":{"externalId":"unosat-manizales-0115","damageLevel":"posible_dano","rawLabel":"Possible Damage","fieldValidated":false,"rawEventCode":"EQ20260810COL","modelScore":null}},{"type":"Feature","geometry":{"type":"Point","coordinates":[-75.48907838699995,5.070388276000074]},"properties":{"externalId":"unosat-manizales-0116","damageLevel":"dano","rawLabel":"Damaged","fieldValidated":false,"rawEventCode":"EQ20260810COL","modelScore":null}},{"type":"Feature","geometry":{"type":"Point","coordinates":[-75.48911663599995,5.070414260000064]},"properties":{"externalId":"unosat-manizales-0117","damageLevel":"posible_dano","rawLabel":"Possible Damage","fieldValidated":false,"rawEventCode":"EQ20260810COL","modelScore":null}},{"type":"Feature","geometry":{"type":"Point","coordinates":[-75.48922225299992,5.072874413000079]},"properties":{"externalId":"unosat-manizales-0118","damageLevel":"posible_dano","rawLabel":"Possible Damage","fieldValidated":false,"rawEventCode":"EQ20260810COL","modelScore":null}},{"type":"Feature","geometry":{"type":"Point","coordinates":[-75.48642929199991,5.072240721000071]},"properties":{"externalId":"unosat-manizales-0119","damageLevel":"posible_dano","rawLabel":"Possible Damage","fieldValidated":false,"rawEventCode":"EQ20260810COL","modelScore":null}},{"type":"Feature","geometry":{"type":"Point","coordinates":[-75.48663769599995,5.072896901000092]},"properties":{"externalId":"unosat-manizales-0120","damageLevel":"posible_dano","rawLabel":"Possible Damage","fieldValidated":false,"rawEventCode":"EQ20260810COL","modelScore":null}},{"type":"Feature","geometry":{"type":"Point","coordinates":[-75.48735151799991,5.072567784000057]},"properties":{"externalId":"unosat-manizales-0121","damageLevel":"posible_dano","rawLabel":"Possible Damage","fieldValidated":false,"rawEventCode":"EQ20260810COL","modelScore":null}},{"type":"Feature","geometry":{"type":"Point","coordinates":[-75.48865260399992,5.072468228000048]},"properties":{"externalId":"unosat-manizales-0122","damageLevel":"posible_dano","rawLabel":"Possible Damage","fieldValidated":false,"rawEventCode":"EQ20260810COL","modelScore":null}},{"type":"Feature","geometry":{"type":"Point","coordinates":[-75.48777061299995,5.074303459000078]},"properties":{"externalId":"unosat-manizales-0123","damageLevel":"dano","rawLabel":"Damaged","fieldValidated":false,"rawEventCode":"EQ20260810COL","modelScore":null}},{"type":"Feature","geometry":{"type":"Point","coordinates":[-75.48767095599993,5.07431996300005]},"properties":{"externalId":"unosat-manizales-0124","damageLevel":"dano","rawLabel":"Damaged","fieldValidated":false,"rawEventCode":"EQ20260810COL","modelScore":null}},{"type":"Feature","geometry":{"type":"Point","coordinates":[-75.48764904899991,5.074237835000076]},"properties":{"externalId":"unosat-manizales-0125","damageLevel":"dano","rawLabel":"Damaged","fieldValidated":false,"rawEventCode":"EQ20260810COL","modelScore":null}},{"type":"Feature","geometry":{"type":"Point","coordinates":[-75.48783165299994,5.073770841000055]},"properties":{"externalId":"unosat-manizales-0126","damageLevel":"posible_dano","rawLabel":"Possible Damage","fieldValidated":false,"rawEventCode":"EQ20260810COL","modelScore":null}},{"type":"Feature","geometry":{"type":"Point","coordinates":[-75.48776479799994,5.073832500000037]},"properties":{"externalId":"unosat-manizales-0127","damageLevel":"posible_dano","rawLabel":"Possible Damage","fieldValidated":false,"rawEventCode":"EQ20260810COL","modelScore":null}},{"type":"Feature","geometry":{"type":"Point","coordinates":[-75.4874738769999,5.073693074000062]},"properties":{"externalId":"unosat-manizales-0128","damageLevel":"posible_dano","rawLabel":"Possible Damage","fieldValidated":false,"rawEventCode":"EQ20260810COL","modelScore":null}},{"type":"Feature","geometry":{"type":"Point","coordinates":[-75.48754757899991,5.073658791000071]},"properties":{"externalId":"unosat-manizales-0129","damageLevel":"posible_dano","rawLabel":"Possible Damage","fieldValidated":false,"rawEventCode":"EQ20260810COL","modelScore":null}},{"type":"Feature","geometry":{"type":"Point","coordinates":[-75.48770670699992,5.072838593000085]},"properties":{"externalId":"unosat-manizales-0130","damageLevel":"posible_dano","rawLabel":"Possible Damage","fieldValidated":false,"rawEventCode":"EQ20260810COL","modelScore":null}},{"type":"Feature","geometry":{"type":"Point","coordinates":[-75.4902617969999,5.073573224000086]},"properties":{"externalId":"unosat-manizales-0131","damageLevel":"posible_dano","rawLabel":"Possible Damage","fieldValidated":false,"rawEventCode":"EQ20260810COL","modelScore":null}},{"type":"Feature","geometry":{"type":"Point","coordinates":[-75.49067251699995,5.073392358000092]},"properties":{"externalId":"unosat-manizales-0132","damageLevel":"posible_dano","rawLabel":"Possible Damage","fieldValidated":false,"rawEventCode":"EQ20260810COL","modelScore":null}},{"type":"Feature","geometry":{"type":"Point","coordinates":[-75.4917159929999,5.073726824000062]},"properties":{"externalId":"unosat-manizales-0133","damageLevel":"dano","rawLabel":"Damaged","fieldValidated":false,"rawEventCode":"EQ20260810COL","modelScore":null}},{"type":"Feature","geometry":{"type":"Point","coordinates":[-75.49421764399995,5.072406495000052]},"properties":{"externalId":"unosat-manizales-0134","damageLevel":"posible_dano","rawLabel":"Possible Damage","fieldValidated":false,"rawEventCode":"EQ20260810COL","modelScore":null}}]}
