{"type":"FeatureCollection","pulso":{"source":"unosat","sourceLabel":"UNOSAT — United Nations Satellite Centre","dataset":"preliminary-satellite-derived-damage-assessment-san-jose-del-palmar-municipality-choco-dep","sourceUrl":"https://data.humdata.org/dataset/preliminary-satellite-derived-damage-assessment-san-jose-del-palmar-municipality-choco-dep","method":"analista","sensor":"Pleiades","imageryDate":"2026-08-12","municipality":"VITERBO","divipola":"17877","license":"CC BY-SA 4.0","attribution":"UNOSAT (EQ20260810COL), CC BY-SA 4.0"},"features":[{"type":"Feature","geometry":{"type":"Point","coordinates":[-75.87824582399992,5.068365676000042]},"properties":{"externalId":"unosat-viterbo-0000","damageLevel":"posible_dano","rawLabel":"Possible Damage","fieldValidated":false,"rawEventCode":"EQ20260810COL","modelScore":null}},{"type":"Feature","geometry":{"type":"Point","coordinates":[-75.87736164799992,5.067592010000055]},"properties":{"externalId":"unosat-viterbo-0001","damageLevel":"dano","rawLabel":"Damage","fieldValidated":false,"rawEventCode":"EQ20260810COL","modelScore":null}},{"type":"Feature","geometry":{"type":"Point","coordinates":[-75.87770396099995,5.067666265000071]},"properties":{"externalId":"unosat-viterbo-0002","damageLevel":"posible_dano","rawLabel":"Possible Damage","fieldValidated":false,"rawEventCode":"EQ20260810COL","modelScore":null}},{"type":"Feature","geometry":{"type":"Point","coordinates":[-75.87775935499991,5.06781286100005]},"properties":{"externalId":"unosat-viterbo-0003","damageLevel":"posible_dano","rawLabel":"Possible Damage","fieldValidated":false,"rawEventCode":"EQ20260810COL","modelScore":null}},{"type":"Feature","geometry":{"type":"Point","coordinates":[-75.8780526239999,5.068354869000075]},"properties":{"externalId":"unosat-viterbo-0004","damageLevel":"dano","rawLabel":"Damage","fieldValidated":false,"rawEventCode":"EQ20260810COL","modelScore":null}},{"type":"Feature","geometry":{"type":"Point","coordinates":[-75.87799732399992,5.068277457000079]},"properties":{"externalId":"unosat-viterbo-0005","damageLevel":"posible_dano","rawLabel":"Possible Damage","fieldValidated":false,"rawEventCode":"EQ20260810COL","modelScore":null}},{"type":"Feature","geometry":{"type":"Point","coordinates":[-75.87818213599991,5.068208022000078]},"properties":{"externalId":"unosat-viterbo-0006","damageLevel":"posible_dano","rawLabel":"Possible Damage","fieldValidated":false,"rawEventCode":"EQ20260810COL","modelScore":null}},{"type":"Feature","geometry":{"type":"Point","coordinates":[-75.87366079499992,5.06349576000008]},"properties":{"externalId":"unosat-viterbo-0007","damageLevel":"posible_dano","rawLabel":"Possible Damage","fieldValidated":false,"rawEventCode":"EQ20260810COL","modelScore":null}},{"type":"Feature","geometry":{"type":"Point","coordinates":[-75.87788923999994,5.067942751000089]},"properties":{"externalId":"unosat-viterbo-0008","damageLevel":"dano","rawLabel":"Damage","fieldValidated":false,"rawEventCode":"EQ20260810COL","modelScore":null}},{"type":"Feature","geometry":{"type":"Point","coordinates":[-75.87728699199994,5.067486951000092]},"properties":{"externalId":"unosat-viterbo-0009","damageLevel":"posible_dano","rawLabel":"Possible Damage","fieldValidated":false,"rawEventCode":"EQ20260810COL","modelScore":null}},{"type":"Feature","geometry":{"type":"Point","coordinates":[-75.87756420499994,5.067747705000045]},"properties":{"externalId":"unosat-viterbo-0010","damageLevel":"posible_dano","rawLabel":"Possible Damage","fieldValidated":false,"rawEventCode":"EQ20260810COL","modelScore":null}},{"type":"Feature","geometry":{"type":"Point","coordinates":[-75.87747225699991,5.067671671000085]},"properties":{"externalId":"unosat-viterbo-0011","damageLevel":"posible_dano","rawLabel":"Possible Damage","fieldValidated":false,"rawEventCode":"EQ20260810COL","modelScore":null}},{"type":"Feature","geometry":{"type":"Point","coordinates":[-75.87672928299992,5.066822540000089]},"properties":{"externalId":"unosat-viterbo-0012","damageLevel":"posible_dano","rawLabel":"Possible Damage","fieldValidated":false,"rawEventCode":"EQ20260810COL","modelScore":null}},{"type":"Feature","geometry":{"type":"Point","coordinates":[-75.87466659599994,5.064421917000061]},"properties":{"externalId":"unosat-viterbo-0013","damageLevel":"dano","rawLabel":"Damage","fieldValidated":false,"rawEventCode":"EQ20260810COL","modelScore":null}},{"type":"Feature","geometry":{"type":"Point","coordinates":[-75.87634773499991,5.066796490000058]},"properties":{"externalId":"unosat-viterbo-0014","damageLevel":"posible_dano","rawLabel":"Possible Damage","fieldValidated":false,"rawEventCode":"EQ20260810COL","modelScore":null}},{"type":"Feature","geometry":{"type":"Point","coordinates":[-75.87561135199991,5.066905525000038]},"properties":{"externalId":"unosat-viterbo-0015","damageLevel":"dano","rawLabel":"Damage","fieldValidated":false,"rawEventCode":"EQ20260810COL","modelScore":null}},{"type":"Feature","geometry":{"type":"Point","coordinates":[-75.87558995599994,5.066756780000048]},"properties":{"externalId":"unosat-viterbo-0016","damageLevel":"dano","rawLabel":"Damage","fieldValidated":false,"rawEventCode":"EQ20260810COL","modelScore":null}},{"type":"Feature","geometry":{"type":"Point","coordinates":[-75.87583554699995,5.066816666000079]},"properties":{"externalId":"unosat-viterbo-0017","damageLevel":"posible_dano","rawLabel":"Possible Damage","fieldValidated":false,"rawEventCode":"EQ20260810COL","modelScore":null}},{"type":"Feature","geometry":{"type":"Point","coordinates":[-75.87647639099993,5.065276692000054]},"properties":{"externalId":"unosat-viterbo-0018","damageLevel":"posible_dano","rawLabel":"Possible Damage","fieldValidated":false,"rawEventCode":"EQ20260810COL","modelScore":null}},{"type":"Feature","geometry":{"type":"Point","coordinates":[-75.87651383799994,5.06554053900004]},"properties":{"externalId":"unosat-viterbo-0019","damageLevel":"dano","rawLabel":"Damage","fieldValidated":false,"rawEventCode":"EQ20260810COL","modelScore":null}},{"type":"Feature","geometry":{"type":"Point","coordinates":[-75.87657018399995,5.065411170000061]},"properties":{"externalId":"unosat-viterbo-0020","damageLevel":"dano","rawLabel":"Damage","fieldValidated":false,"rawEventCode":"EQ20260810COL","modelScore":null}},{"type":"Feature","geometry":{"type":"Point","coordinates":[-75.87473893399994,5.065677546000074]},"properties":{"externalId":"unosat-viterbo-0021","damageLevel":"dano","rawLabel":"Damage","fieldValidated":false,"rawEventCode":"EQ20260810COL","modelScore":null}},{"type":"Feature","geometry":{"type":"Point","coordinates":[-75.87575132199993,5.065917049000063]},"properties":{"externalId":"unosat-viterbo-0022","damageLevel":"posible_dano","rawLabel":"Possible Damage","fieldValidated":false,"rawEventCode":"EQ20260810COL","modelScore":null}},{"type":"Feature","geometry":{"type":"Point","coordinates":[-75.87556006999995,5.06554891400009]},"properties":{"externalId":"unosat-viterbo-0023","damageLevel":"posible_dano","rawLabel":"Possible Damage","fieldValidated":false,"rawEventCode":"EQ20260810COL","modelScore":null}},{"type":"Feature","geometry":{"type":"Point","coordinates":[-75.87461540299995,5.065757413000085]},"properties":{"externalId":"unosat-viterbo-0024","damageLevel":"posible_dano","rawLabel":"Possible Damage","fieldValidated":false,"rawEventCode":"EQ20260810COL","modelScore":null}},{"type":"Feature","geometry":{"type":"Point","coordinates":[-75.87459961899992,5.065840678000086]},"properties":{"externalId":"unosat-viterbo-0025","damageLevel":"posible_dano","rawLabel":"Possible Damage","fieldValidated":false,"rawEventCode":"EQ20260810COL","modelScore":null}},{"type":"Feature","geometry":{"type":"Point","coordinates":[-75.87383459799992,5.065504644000043]},"properties":{"externalId":"unosat-viterbo-0026","damageLevel":"posible_dano","rawLabel":"Possible Damage","fieldValidated":false,"rawEventCode":"EQ20260810COL","modelScore":null}},{"type":"Feature","geometry":{"type":"Point","coordinates":[-75.87385371599993,5.06535518000004]},"properties":{"externalId":"unosat-viterbo-0027","damageLevel":"posible_dano","rawLabel":"Possible Damage","fieldValidated":false,"rawEventCode":"EQ20260810COL","modelScore":null}},{"type":"Feature","geometry":{"type":"Point","coordinates":[-75.87198746399991,5.064876173000073]},"properties":{"externalId":"unosat-viterbo-0028","damageLevel":"dano","rawLabel":"Damage","fieldValidated":false,"rawEventCode":"EQ20260810COL","modelScore":null}},{"type":"Feature","geometry":{"type":"Point","coordinates":[-75.87036960799992,5.064407895000045]},"properties":{"externalId":"unosat-viterbo-0029","damageLevel":"posible_dano","rawLabel":"Possible Damage","fieldValidated":false,"rawEventCode":"EQ20260810COL","modelScore":null}},{"type":"Feature","geometry":{"type":"Point","coordinates":[-75.8687436969999,5.064105667000092]},"properties":{"externalId":"unosat-viterbo-0030","damageLevel":"posible_dano","rawLabel":"Possible Damage","fieldValidated":false,"rawEventCode":"EQ20260810COL","modelScore":null}},{"type":"Feature","geometry":{"type":"Point","coordinates":[-75.86888182599995,5.064210642000091]},"properties":{"externalId":"unosat-viterbo-0031","damageLevel":"dano","rawLabel":"Damage","fieldValidated":false,"rawEventCode":"EQ20260810COL","modelScore":null}},{"type":"Feature","geometry":{"type":"Point","coordinates":[-75.86999843099994,5.065779578000047]},"properties":{"externalId":"unosat-viterbo-0032","damageLevel":"dano","rawLabel":"Damage","fieldValidated":false,"rawEventCode":"EQ20260810COL","modelScore":null}},{"type":"Feature","geometry":{"type":"Point","coordinates":[-75.8704723539999,5.066202239000063]},"properties":{"externalId":"unosat-viterbo-0033","damageLevel":"dano","rawLabel":"Damage","fieldValidated":false,"rawEventCode":"EQ20260810COL","modelScore":null}},{"type":"Feature","geometry":{"type":"Point","coordinates":[-75.86942396599994,5.064651744000059]},"properties":{"externalId":"unosat-viterbo-0034","damageLevel":"posible_dano","rawLabel":"Possible Damage","fieldValidated":false,"rawEventCode":"EQ20260810COL","modelScore":null}},{"type":"Feature","geometry":{"type":"Point","coordinates":[-75.86890295699993,5.064451781000059]},"properties":{"externalId":"unosat-viterbo-0035","damageLevel":"posible_dano","rawLabel":"Possible Damage","fieldValidated":false,"rawEventCode":"EQ20260810COL","modelScore":null}},{"type":"Feature","geometry":{"type":"Point","coordinates":[-75.86903034199992,5.06448353400009]},"properties":{"externalId":"unosat-viterbo-0036","damageLevel":"posible_dano","rawLabel":"Possible Damage","fieldValidated":false,"rawEventCode":"EQ20260810COL","modelScore":null}},{"type":"Feature","geometry":{"type":"Point","coordinates":[-75.86785963999995,5.06478381800008]},"properties":{"externalId":"unosat-viterbo-0037","damageLevel":"posible_dano","rawLabel":"Possible Damage","fieldValidated":false,"rawEventCode":"EQ20260810COL","modelScore":null}},{"type":"Feature","geometry":{"type":"Point","coordinates":[-75.86775900999993,5.064352985000085]},"properties":{"externalId":"unosat-viterbo-0038","damageLevel":"posible_dano","rawLabel":"Possible Damage","fieldValidated":false,"rawEventCode":"EQ20260810COL","modelScore":null}},{"type":"Feature","geometry":{"type":"Point","coordinates":[-75.86686125699993,5.064707627000075]},"properties":{"externalId":"unosat-viterbo-0039","damageLevel":"dano","rawLabel":"Damage","fieldValidated":false,"rawEventCode":"EQ20260810COL","modelScore":null}},{"type":"Feature","geometry":{"type":"Point","coordinates":[-75.86598085199995,5.064428335000059]},"properties":{"externalId":"unosat-viterbo-0040","damageLevel":"posible_dano","rawLabel":"Possible Damage","fieldValidated":false,"rawEventCode":"EQ20260810COL","modelScore":null}},{"type":"Feature","geometry":{"type":"Point","coordinates":[-75.86570168299994,5.064827753000088]},"properties":{"externalId":"unosat-viterbo-0041","damageLevel":"posible_dano","rawLabel":"Possible Damage","fieldValidated":false,"rawEventCode":"EQ20260810COL","modelScore":null}},{"type":"Feature","geometry":{"type":"Point","coordinates":[-75.86567005299992,5.06498285300006]},"properties":{"externalId":"unosat-viterbo-0042","damageLevel":"posible_dano","rawLabel":"Possible Damage","fieldValidated":false,"rawEventCode":"EQ20260810COL","modelScore":null}},{"type":"Feature","geometry":{"type":"Point","coordinates":[-75.86756899499994,5.065103444000044]},"properties":{"externalId":"unosat-viterbo-0043","damageLevel":"dano","rawLabel":"Damage","fieldValidated":false,"rawEventCode":"EQ20260810COL","modelScore":null}},{"type":"Feature","geometry":{"type":"Point","coordinates":[-75.86781051799994,5.065463400000056]},"properties":{"externalId":"unosat-viterbo-0044","damageLevel":"dano","rawLabel":"Damage","fieldValidated":false,"rawEventCode":"EQ20260810COL","modelScore":null}},{"type":"Feature","geometry":{"type":"Point","coordinates":[-75.86783540099992,5.065365316000054]},"properties":{"externalId":"unosat-viterbo-0045","damageLevel":"dano","rawLabel":"Damage","fieldValidated":false,"rawEventCode":"EQ20260810COL","modelScore":null}},{"type":"Feature","geometry":{"type":"Point","coordinates":[-75.8677193979999,5.065342669000074]},"properties":{"externalId":"unosat-viterbo-0046","damageLevel":"posible_dano","rawLabel":"Possible Damage","fieldValidated":false,"rawEventCode":"EQ20260810COL","modelScore":null}},{"type":"Feature","geometry":{"type":"Point","coordinates":[-75.86784171499994,5.064984505000041]},"properties":{"externalId":"unosat-viterbo-0047","damageLevel":"posible_dano","rawLabel":"Possible Damage","fieldValidated":false,"rawEventCode":"EQ20260810COL","modelScore":null}},{"type":"Feature","geometry":{"type":"Point","coordinates":[-75.86761309499991,5.065773780000086]},"properties":{"externalId":"unosat-viterbo-0048","damageLevel":"posible_dano","rawLabel":"Possible Damage","fieldValidated":false,"rawEventCode":"EQ20260810COL","modelScore":null}},{"type":"Feature","geometry":{"type":"Point","coordinates":[-75.86755427199995,5.065999604000069]},"properties":{"externalId":"unosat-viterbo-0049","damageLevel":"posible_dano","rawLabel":"Possible Damage","fieldValidated":false,"rawEventCode":"EQ20260810COL","modelScore":null}},{"type":"Feature","geometry":{"type":"Point","coordinates":[-75.86771803599993,5.06602674700008]},"properties":{"externalId":"unosat-viterbo-0050","damageLevel":"posible_dano","rawLabel":"Possible Damage","fieldValidated":false,"rawEventCode":"EQ20260810COL","modelScore":null}},{"type":"Feature","geometry":{"type":"Point","coordinates":[-75.86817954299994,5.065941759000054]},"properties":{"externalId":"unosat-viterbo-0051","damageLevel":"posible_dano","rawLabel":"Possible Damage","fieldValidated":false,"rawEventCode":"EQ20260810COL","modelScore":null}},{"type":"Feature","geometry":{"type":"Point","coordinates":[-75.8674069519999,5.066366923000089]},"properties":{"externalId":"unosat-viterbo-0052","damageLevel":"dano","rawLabel":"Damage","fieldValidated":false,"rawEventCode":"EQ20260810COL","modelScore":null}},{"type":"Feature","geometry":{"type":"Point","coordinates":[-75.86790263599994,5.066332054000043]},"properties":{"externalId":"unosat-viterbo-0053","damageLevel":"dano","rawLabel":"Damage","fieldValidated":false,"rawEventCode":"EQ20260810COL","modelScore":null}},{"type":"Feature","geometry":{"type":"Point","coordinates":[-75.86690417299991,5.066196577000085]},"properties":{"externalId":"unosat-viterbo-0054","damageLevel":"posible_dano","rawLabel":"Possible Damage","fieldValidated":false,"rawEventCode":"EQ20260810COL","modelScore":null}},{"type":"Feature","geometry":{"type":"Point","coordinates":[-75.86725216299993,5.066248557000051]},"properties":{"externalId":"unosat-viterbo-0055","damageLevel":"posible_dano","rawLabel":"Possible Damage","fieldValidated":false,"rawEventCode":"EQ20260810COL","modelScore":null}},{"type":"Feature","geometry":{"type":"Point","coordinates":[-75.8673133019999,5.066054653000037]},"properties":{"externalId":"unosat-viterbo-0056","damageLevel":"posible_dano","rawLabel":"Possible Damage","fieldValidated":false,"rawEventCode":"EQ20260810COL","modelScore":null}},{"type":"Feature","geometry":{"type":"Point","coordinates":[-75.86683173299991,5.066442942000037]},"properties":{"externalId":"unosat-viterbo-0057","damageLevel":"posible_dano","rawLabel":"Possible Damage","fieldValidated":false,"rawEventCode":"EQ20260810COL","modelScore":null}},{"type":"Feature","geometry":{"type":"Point","coordinates":[-75.86653610899992,5.066438778000077]},"properties":{"externalId":"unosat-viterbo-0058","damageLevel":"dano","rawLabel":"Damage","fieldValidated":false,"rawEventCode":"EQ20260810COL","modelScore":null}},{"type":"Feature","geometry":{"type":"Point","coordinates":[-75.86574354599992,5.065527736000092]},"properties":{"externalId":"unosat-viterbo-0059","damageLevel":"dano","rawLabel":"Damage","fieldValidated":false,"rawEventCode":"EQ20260810COL","modelScore":null}},{"type":"Feature","geometry":{"type":"Point","coordinates":[-75.86380977199991,5.064864485000044]},"properties":{"externalId":"unosat-viterbo-0060","damageLevel":"posible_dano","rawLabel":"Possible Damage","fieldValidated":false,"rawEventCode":"EQ20260810COL","modelScore":null}},{"type":"Feature","geometry":{"type":"Point","coordinates":[-75.86680301899992,5.067079172000092]},"properties":{"externalId":"unosat-viterbo-0061","damageLevel":"posible_dano","rawLabel":"Possible Damage","fieldValidated":false,"rawEventCode":"EQ20260810COL","modelScore":null}},{"type":"Feature","geometry":{"type":"Point","coordinates":[-75.86660129299992,5.067574258000093]},"properties":{"externalId":"unosat-viterbo-0062","damageLevel":"posible_dano","rawLabel":"Possible Damage","fieldValidated":false,"rawEventCode":"EQ20260810COL","modelScore":null}},{"type":"Feature","geometry":{"type":"Point","coordinates":[-75.86464119999994,5.067645289000041]},"properties":{"externalId":"unosat-viterbo-0063","damageLevel":"dano","rawLabel":"Damage","fieldValidated":false,"rawEventCode":"EQ20260810COL","modelScore":null}},{"type":"Feature","geometry":{"type":"Point","coordinates":[-75.86449566199991,5.067643203000046]},"properties":{"externalId":"unosat-viterbo-0064","damageLevel":"dano","rawLabel":"Damage","fieldValidated":false,"rawEventCode":"EQ20260810COL","modelScore":null}},{"type":"Feature","geometry":{"type":"Point","coordinates":[-75.8633646859999,5.068755200000055]},"properties":{"externalId":"unosat-viterbo-0065","damageLevel":"posible_dano","rawLabel":"Possible Damage","fieldValidated":false,"rawEventCode":"EQ20260810COL","modelScore":null}},{"type":"Feature","geometry":{"type":"Point","coordinates":[-75.8640621429999,5.068257172000074]},"properties":{"externalId":"unosat-viterbo-0066","damageLevel":"dano","rawLabel":"Damage","fieldValidated":false,"rawEventCode":"EQ20260810COL","modelScore":null}},{"type":"Feature","geometry":{"type":"Point","coordinates":[-75.86405735299991,5.06807475800008]},"properties":{"externalId":"unosat-viterbo-0067","damageLevel":"posible_dano","rawLabel":"Possible Damage","fieldValidated":false,"rawEventCode":"EQ20260810COL","modelScore":null}},{"type":"Feature","geometry":{"type":"Point","coordinates":[-75.86478524199993,5.066520929000092]},"properties":{"externalId":"unosat-viterbo-0068","damageLevel":"posible_dano","rawLabel":"Possible Damage","fieldValidated":false,"rawEventCode":"EQ20260810COL","modelScore":null}},{"type":"Feature","geometry":{"type":"Point","coordinates":[-75.8646104259999,5.066733227000043]},"properties":{"externalId":"unosat-viterbo-0069","damageLevel":"posible_dano","rawLabel":"Possible Damage","fieldValidated":false,"rawEventCode":"EQ20260810COL","modelScore":null}},{"type":"Feature","geometry":{"type":"Point","coordinates":[-75.86431943399992,5.066792903000078]},"properties":{"externalId":"unosat-viterbo-0070","damageLevel":"dano","rawLabel":"Damage","fieldValidated":false,"rawEventCode":"EQ20260810COL","modelScore":null}},{"type":"Feature","geometry":{"type":"Point","coordinates":[-75.86468779899991,5.066776449000088]},"properties":{"externalId":"unosat-viterbo-0071","damageLevel":"dano","rawLabel":"Damage","fieldValidated":false,"rawEventCode":"EQ20260810COL","modelScore":null}},{"type":"Feature","geometry":{"type":"Point","coordinates":[-75.87584400599991,5.065083176000087]},"properties":{"externalId":"unosat-viterbo-0072","damageLevel":"dano","rawLabel":"Damage","fieldValidated":false,"rawEventCode":"EQ20260810COL","modelScore":null}},{"type":"Feature","geometry":{"type":"Point","coordinates":[-75.87617572999994,5.064877504000037]},"properties":{"externalId":"unosat-viterbo-0073","damageLevel":"posible_dano","rawLabel":"Possible Damage","fieldValidated":false,"rawEventCode":"EQ20260810COL","modelScore":null}},{"type":"Feature","geometry":{"type":"Point","coordinates":[-75.87372285899994,5.063747535000061]},"properties":{"externalId":"unosat-viterbo-0074","damageLevel":"posible_dano","rawLabel":"Possible Damage","fieldValidated":false,"rawEventCode":"EQ20260810COL","modelScore":null}},{"type":"Feature","geometry":{"type":"Point","coordinates":[-75.87171235999995,5.063524501000074]},"properties":{"externalId":"unosat-viterbo-0075","damageLevel":"dano","rawLabel":"Damage","fieldValidated":false,"rawEventCode":"EQ20260810COL","modelScore":null}},{"type":"Feature","geometry":{"type":"Point","coordinates":[-75.86969765899994,5.063559134000059]},"properties":{"externalId":"unosat-viterbo-0076","damageLevel":"dano","rawLabel":"Damage","fieldValidated":false,"rawEventCode":"EQ20260810COL","modelScore":null}},{"type":"Feature","geometry":{"type":"Point","coordinates":[-75.86948836099992,5.063491008000085]},"properties":{"externalId":"unosat-viterbo-0077","damageLevel":"posible_dano","rawLabel":"Possible Damage","fieldValidated":false,"rawEventCode":"EQ20260810COL","modelScore":null}},{"type":"Feature","geometry":{"type":"Point","coordinates":[-75.86951596499995,5.062024767000082]},"properties":{"externalId":"unosat-viterbo-0078","damageLevel":"posible_dano","rawLabel":"Possible Damage","fieldValidated":false,"rawEventCode":"EQ20260810COL","modelScore":null}},{"type":"Feature","geometry":{"type":"Point","coordinates":[-75.87536545299992,5.06263711400004]},"properties":{"externalId":"unosat-viterbo-0079","damageLevel":"posible_dano","rawLabel":"Possible Damage","fieldValidated":false,"rawEventCode":"EQ20260810COL","modelScore":null}},{"type":"Feature","geometry":{"type":"Point","coordinates":[-75.87556563299995,5.062689289000048]},"properties":{"externalId":"unosat-viterbo-0080","damageLevel":"posible_dano","rawLabel":"Possible Damage","fieldValidated":false,"rawEventCode":"EQ20260810COL","modelScore":null}},{"type":"Feature","geometry":{"type":"Point","coordinates":[-75.87552727899993,5.062915086000089]},"properties":{"externalId":"unosat-viterbo-0081","damageLevel":"posible_dano","rawLabel":"Possible Damage","fieldValidated":false,"rawEventCode":"EQ20260810COL","modelScore":null}},{"type":"Feature","geometry":{"type":"Point","coordinates":[-75.87542974099995,5.063095357000066]},"properties":{"externalId":"unosat-viterbo-0082","damageLevel":"posible_dano","rawLabel":"Possible Damage","fieldValidated":false,"rawEventCode":"EQ20260810COL","modelScore":null}},{"type":"Feature","geometry":{"type":"Point","coordinates":[-75.87539122399994,5.063200301000052]},"properties":{"externalId":"unosat-viterbo-0083","damageLevel":"dano","rawLabel":"Damage","fieldValidated":false,"rawEventCode":"EQ20260810COL","modelScore":null}},{"type":"Feature","geometry":{"type":"Point","coordinates":[-75.8718888649999,5.061180162000085]},"properties":{"externalId":"unosat-viterbo-0084","damageLevel":"dano","rawLabel":"Damage","fieldValidated":false,"rawEventCode":"EQ20260810COL","modelScore":null}},{"type":"Feature","geometry":{"type":"Point","coordinates":[-75.87047545899992,5.061932267000088]},"properties":{"externalId":"unosat-viterbo-0085","damageLevel":"posible_dano","rawLabel":"Possible Damage","fieldValidated":false,"rawEventCode":"EQ20260810COL","modelScore":null}},{"type":"Feature","geometry":{"type":"Point","coordinates":[-75.87064085899993,5.061482835000049]},"properties":{"externalId":"unosat-viterbo-0086","damageLevel":"posible_dano","rawLabel":"Possible Damage","fieldValidated":false,"rawEventCode":"EQ20260810COL","modelScore":null}},{"type":"Feature","geometry":{"type":"Point","coordinates":[-75.86813767899991,5.060127163000061]},"properties":{"externalId":"unosat-viterbo-0087","damageLevel":"posible_dano","rawLabel":"Possible Damage","fieldValidated":false,"rawEventCode":"EQ20260810COL","modelScore":null}},{"type":"Feature","geometry":{"type":"Point","coordinates":[-75.86796684799992,5.059915328000045]},"properties":{"externalId":"unosat-viterbo-0088","damageLevel":"dano","rawLabel":"Damage","fieldValidated":false,"rawEventCode":"EQ20260810COL","modelScore":null}},{"type":"Feature","geometry":{"type":"Point","coordinates":[-75.86730526399992,5.060021106000079]},"properties":{"externalId":"unosat-viterbo-0089","damageLevel":"dano","rawLabel":"Damage","fieldValidated":false,"rawEventCode":"EQ20260810COL","modelScore":null}},{"type":"Feature","geometry":{"type":"Point","coordinates":[-75.86603874199994,5.060082087000069]},"properties":{"externalId":"unosat-viterbo-0090","damageLevel":"dano","rawLabel":"Damage","fieldValidated":false,"rawEventCode":"EQ20260810COL","modelScore":null}},{"type":"Feature","geometry":{"type":"Point","coordinates":[-75.8711990459999,5.058878034000088]},"properties":{"externalId":"unosat-viterbo-0091","damageLevel":"dano","rawLabel":"Damage","fieldValidated":false,"rawEventCode":"EQ20260810COL","modelScore":null}},{"type":"Feature","geometry":{"type":"Point","coordinates":[-75.87157631499991,5.060421258000076]},"properties":{"externalId":"unosat-viterbo-0092","damageLevel":"dano","rawLabel":"Damage","fieldValidated":false,"rawEventCode":"EQ20260810COL","modelScore":null}},{"type":"Feature","geometry":{"type":"Point","coordinates":[-75.87302122199992,5.05942284200006]},"properties":{"externalId":"unosat-viterbo-0093","damageLevel":"dano","rawLabel":"Damage","fieldValidated":false,"rawEventCode":"EQ20260810COL","modelScore":null}},{"type":"Feature","geometry":{"type":"Point","coordinates":[-75.87325415399994,5.060159050000038]},"properties":{"externalId":"unosat-viterbo-0094","damageLevel":"dano","rawLabel":"Damage","fieldValidated":false,"rawEventCode":"EQ20260810COL","modelScore":null}},{"type":"Feature","geometry":{"type":"Point","coordinates":[-75.87403335199991,5.061277603000065]},"properties":{"externalId":"unosat-viterbo-0095","damageLevel":"posible_dano","rawLabel":"Possible Damage","fieldValidated":false,"rawEventCode":"EQ20260810COL","modelScore":null}},{"type":"Feature","geometry":{"type":"Point","coordinates":[-75.87376787699992,5.060014701000057]},"properties":{"externalId":"unosat-viterbo-0096","damageLevel":"posible_dano","rawLabel":"Possible Damage","fieldValidated":false,"rawEventCode":"EQ20260810COL","modelScore":null}},{"type":"Feature","geometry":{"type":"Point","coordinates":[-75.87485791099994,5.060612936000041]},"properties":{"externalId":"unosat-viterbo-0097","damageLevel":"dano","rawLabel":"Damage","fieldValidated":false,"rawEventCode":"EQ20260810COL","modelScore":null}},{"type":"Feature","geometry":{"type":"Point","coordinates":[-75.87448259899992,5.06053363400008]},"properties":{"externalId":"unosat-viterbo-0098","damageLevel":"dano","rawLabel":"Damage","fieldValidated":false,"rawEventCode":"EQ20260810COL","modelScore":null}},{"type":"Feature","geometry":{"type":"Point","coordinates":[-75.87463500699994,5.060572193000041]},"properties":{"externalId":"unosat-viterbo-0099","damageLevel":"posible_dano","rawLabel":"Possible Damage","fieldValidated":false,"rawEventCode":"EQ20260810COL","modelScore":null}},{"type":"Feature","geometry":{"type":"Point","coordinates":[-75.87427674599991,5.061336561000076]},"properties":{"externalId":"unosat-viterbo-0100","damageLevel":"dano","rawLabel":"Damage","fieldValidated":false,"rawEventCode":"EQ20260810COL","modelScore":null}},{"type":"Feature","geometry":{"type":"Point","coordinates":[-75.87910796199992,5.062301407000064]},"properties":{"externalId":"unosat-viterbo-0101","damageLevel":"posible_dano","rawLabel":"Possible Damage","fieldValidated":false,"rawEventCode":"EQ20260810COL","modelScore":null}},{"type":"Feature","geometry":{"type":"Point","coordinates":[-75.87218759699994,5.058411532000093]},"properties":{"externalId":"unosat-viterbo-0102","damageLevel":"posible_dano","rawLabel":"Possible Damage","fieldValidated":false,"rawEventCode":"EQ20260810COL","modelScore":null}},{"type":"Feature","geometry":{"type":"Point","coordinates":[-75.87395958699994,5.06222856800008]},"properties":{"externalId":"unosat-viterbo-0103","damageLevel":"posible_dano","rawLabel":"Possible Damage","fieldValidated":false,"rawEventCode":"EQ20260810COL","modelScore":null}},{"type":"Feature","geometry":{"type":"Point","coordinates":[-75.86307465999994,5.067762033000065]},"properties":{"externalId":"unosat-viterbo-0104","damageLevel":"dano","rawLabel":"Damage","fieldValidated":false,"rawEventCode":"EQ20260810COL","modelScore":null}},{"type":"Feature","geometry":{"type":"Point","coordinates":[-75.87699090899991,5.065688169000055]},"properties":{"externalId":"unosat-viterbo-0105","damageLevel":"posible_dano","rawLabel":"Possible Damage","fieldValidated":false,"rawEventCode":"EQ20260810COL","modelScore":null}},{"type":"Feature","geometry":{"type":"Point","coordinates":[-75.87571541099993,5.065234941000085]},"properties":{"externalId":"unosat-viterbo-0106","damageLevel":"posible_dano","rawLabel":"Possible Damage","fieldValidated":false,"rawEventCode":"EQ20260810COL","modelScore":null}},{"type":"Feature","geometry":{"type":"Point","coordinates":[-75.87562951399991,5.065211708000049]},"properties":{"externalId":"unosat-viterbo-0107","damageLevel":"posible_dano","rawLabel":"Possible Damage","fieldValidated":false,"rawEventCode":"EQ20260810COL","modelScore":null}},{"type":"Feature","geometry":{"type":"Point","coordinates":[-75.87628881499995,5.074543333000065]},"properties":{"externalId":"unosat-viterbo-0108","damageLevel":"posible_dano","rawLabel":"Possible Damage","fieldValidated":false,"rawEventCode":"EQ20260810COL","modelScore":null}},{"type":"Feature","geometry":{"type":"Point","coordinates":[-75.87546753599992,5.074277657000039]},"properties":{"externalId":"unosat-viterbo-0109","damageLevel":"posible_dano","rawLabel":"Possible Damage","fieldValidated":false,"rawEventCode":"EQ20260810COL","modelScore":null}},{"type":"Feature","geometry":{"type":"Point","coordinates":[-75.87630950499994,5.074709763000044]},"properties":{"externalId":"unosat-viterbo-0110","damageLevel":"posible_dano","rawLabel":"Possible Damage","fieldValidated":false,"rawEventCode":"EQ20260810COL","modelScore":null}},{"type":"Feature","geometry":{"type":"Point","coordinates":[-75.87430226599992,5.075243782000086]},"properties":{"externalId":"unosat-viterbo-0111","damageLevel":"dano","rawLabel":"Damage","fieldValidated":false,"rawEventCode":"EQ20260810COL","modelScore":null}},{"type":"Feature","geometry":{"type":"Point","coordinates":[-75.87458364199995,5.07479647200006]},"properties":{"externalId":"unosat-viterbo-0112","damageLevel":"posible_dano","rawLabel":"Possible Damage","fieldValidated":false,"rawEventCode":"EQ20260810COL","modelScore":null}},{"type":"Feature","geometry":{"type":"Point","coordinates":[-75.8729053969999,5.074782780000078]},"properties":{"externalId":"unosat-viterbo-0113","damageLevel":"dano","rawLabel":"Damage","fieldValidated":false,"rawEventCode":"EQ20260810COL","modelScore":null}},{"type":"Feature","geometry":{"type":"Point","coordinates":[-75.87577399299994,5.073880478000092]},"properties":{"externalId":"unosat-viterbo-0114","damageLevel":"posible_dano","rawLabel":"Possible Damage","fieldValidated":false,"rawEventCode":"EQ20260810COL","modelScore":null}},{"type":"Feature","geometry":{"type":"Point","coordinates":[-75.87495748099991,5.07377669300007]},"properties":{"externalId":"unosat-viterbo-0115","damageLevel":"posible_dano","rawLabel":"Possible Damage","fieldValidated":false,"rawEventCode":"EQ20260810COL","modelScore":null}},{"type":"Feature","geometry":{"type":"Point","coordinates":[-75.87570256099991,5.073185099000057]},"properties":{"externalId":"unosat-viterbo-0116","damageLevel":"posible_dano","rawLabel":"Possible Damage","fieldValidated":false,"rawEventCode":"EQ20260810COL","modelScore":null}},{"type":"Feature","geometry":{"type":"Point","coordinates":[-75.87356434999992,5.074401087000069]},"properties":{"externalId":"unosat-viterbo-0117","damageLevel":"dano","rawLabel":"Damage","fieldValidated":false,"rawEventCode":"EQ20260810COL","modelScore":null}},{"type":"Feature","geometry":{"type":"Point","coordinates":[-75.8725856659999,5.07376393900006]},"properties":{"externalId":"unosat-viterbo-0118","damageLevel":"dano","rawLabel":"Damage","fieldValidated":false,"rawEventCode":"EQ20260810COL","modelScore":null}},{"type":"Feature","geometry":{"type":"Point","coordinates":[-75.8722063219999,5.074074566000093]},"properties":{"externalId":"unosat-viterbo-0119","damageLevel":"posible_dano","rawLabel":"Possible Damage","fieldValidated":false,"rawEventCode":"EQ20260810COL","modelScore":null}},{"type":"Feature","geometry":{"type":"Point","coordinates":[-75.87278819699992,5.073870838000062]},"properties":{"externalId":"unosat-viterbo-0120","damageLevel":"posible_dano","rawLabel":"Possible Damage","fieldValidated":false,"rawEventCode":"EQ20260810COL","modelScore":null}},{"type":"Feature","geometry":{"type":"Point","coordinates":[-75.87270854799993,5.073827620000088]},"properties":{"externalId":"unosat-viterbo-0121","damageLevel":"posible_dano","rawLabel":"Possible Damage","fieldValidated":false,"rawEventCode":"EQ20260810COL","modelScore":null}},{"type":"Feature","geometry":{"type":"Point","coordinates":[-75.87332076599995,5.074205315000086]},"properties":{"externalId":"unosat-viterbo-0122","damageLevel":"posible_dano","rawLabel":"Possible Damage","fieldValidated":false,"rawEventCode":"EQ20260810COL","modelScore":null}},{"type":"Feature","geometry":{"type":"Point","coordinates":[-75.87195595999992,5.073910726000065]},"properties":{"externalId":"unosat-viterbo-0123","damageLevel":"dano","rawLabel":"Damage","fieldValidated":false,"rawEventCode":"EQ20260810COL","modelScore":null}},{"type":"Feature","geometry":{"type":"Point","coordinates":[-75.87214678399994,5.073766812000088]},"properties":{"externalId":"unosat-viterbo-0124","damageLevel":"posible_dano","rawLabel":"Possible Damage","fieldValidated":false,"rawEventCode":"EQ20260810COL","modelScore":null}},{"type":"Feature","geometry":{"type":"Point","coordinates":[-75.8723559199999,5.073711804000084]},"properties":{"externalId":"unosat-viterbo-0125","damageLevel":"posible_dano","rawLabel":"Possible Damage","fieldValidated":false,"rawEventCode":"EQ20260810COL","modelScore":null}},{"type":"Feature","geometry":{"type":"Point","coordinates":[-75.87244675199992,5.073615910000058]},"properties":{"externalId":"unosat-viterbo-0126","damageLevel":"posible_dano","rawLabel":"Possible Damage","fieldValidated":false,"rawEventCode":"EQ20260810COL","modelScore":null}},{"type":"Feature","geometry":{"type":"Point","coordinates":[-75.8733088969999,5.07383365000004]},"properties":{"externalId":"unosat-viterbo-0127","damageLevel":"posible_dano","rawLabel":"Possible Damage","fieldValidated":false,"rawEventCode":"EQ20260810COL","modelScore":null}},{"type":"Feature","geometry":{"type":"Point","coordinates":[-75.8729061329999,5.073638092000067]},"properties":{"externalId":"unosat-viterbo-0128","damageLevel":"posible_dano","rawLabel":"Possible Damage","fieldValidated":false,"rawEventCode":"EQ20260810COL","modelScore":null}},{"type":"Feature","geometry":{"type":"Point","coordinates":[-75.87164716199993,5.074260021000043]},"properties":{"externalId":"unosat-viterbo-0129","damageLevel":"posible_dano","rawLabel":"Possible Damage","fieldValidated":false,"rawEventCode":"EQ20260810COL","modelScore":null}},{"type":"Feature","geometry":{"type":"Point","coordinates":[-75.87348726199991,5.072880263000059]},"properties":{"externalId":"unosat-viterbo-0130","damageLevel":"posible_dano","rawLabel":"Possible Damage","fieldValidated":false,"rawEventCode":"EQ20260810COL","modelScore":null}},{"type":"Feature","geometry":{"type":"Point","coordinates":[-75.8729225969999,5.072352008000053]},"properties":{"externalId":"unosat-viterbo-0131","damageLevel":"posible_dano","rawLabel":"Possible Damage","fieldValidated":false,"rawEventCode":"EQ20260810COL","modelScore":null}},{"type":"Feature","geometry":{"type":"Point","coordinates":[-75.87284475699994,5.071962190000079]},"properties":{"externalId":"unosat-viterbo-0132","damageLevel":"posible_dano","rawLabel":"Possible Damage","fieldValidated":false,"rawEventCode":"EQ20260810COL","modelScore":null}},{"type":"Feature","geometry":{"type":"Point","coordinates":[-75.87028615699995,5.071710252000059]},"properties":{"externalId":"unosat-viterbo-0133","damageLevel":"dano","rawLabel":"Damage","fieldValidated":false,"rawEventCode":"EQ20260810COL","modelScore":null}},{"type":"Feature","geometry":{"type":"Point","coordinates":[-75.87053228799994,5.072111245000087]},"properties":{"externalId":"unosat-viterbo-0134","damageLevel":"posible_dano","rawLabel":"Possible Damage","fieldValidated":false,"rawEventCode":"EQ20260810COL","modelScore":null}},{"type":"Feature","geometry":{"type":"Point","coordinates":[-75.87026603599992,5.071967948000065]},"properties":{"externalId":"unosat-viterbo-0135","damageLevel":"posible_dano","rawLabel":"Possible Damage","fieldValidated":false,"rawEventCode":"EQ20260810COL","modelScore":null}},{"type":"Feature","geometry":{"type":"Point","coordinates":[-75.87401763699995,5.070526896000047]},"properties":{"externalId":"unosat-viterbo-0136","damageLevel":"dano","rawLabel":"Damage","fieldValidated":false,"rawEventCode":"EQ20260810COL","modelScore":null}},{"type":"Feature","geometry":{"type":"Point","coordinates":[-75.87409784499994,5.069400914000084]},"properties":{"externalId":"unosat-viterbo-0137","damageLevel":"dano","rawLabel":"Damage","fieldValidated":false,"rawEventCode":"EQ20260810COL","modelScore":null}},{"type":"Feature","geometry":{"type":"Point","coordinates":[-75.87387179599995,5.070405955000069]},"properties":{"externalId":"unosat-viterbo-0138","damageLevel":"dano","rawLabel":"Damage","fieldValidated":false,"rawEventCode":"EQ20260810COL","modelScore":null}},{"type":"Feature","geometry":{"type":"Point","coordinates":[-75.87276440699992,5.071291049000081]},"properties":{"externalId":"unosat-viterbo-0139","damageLevel":"dano","rawLabel":"Damage","fieldValidated":false,"rawEventCode":"EQ20260810COL","modelScore":null}},{"type":"Feature","geometry":{"type":"Point","coordinates":[-75.87265555599993,5.069609510000078]},"properties":{"externalId":"unosat-viterbo-0140","damageLevel":"posible_dano","rawLabel":"Possible Damage","fieldValidated":false,"rawEventCode":"EQ20260810COL","modelScore":null}},{"type":"Feature","geometry":{"type":"Point","coordinates":[-75.8639883969999,5.072653607000063]},"properties":{"externalId":"unosat-viterbo-0141","damageLevel":"posible_dano","rawLabel":"Possible Damage","fieldValidated":false,"rawEventCode":"EQ20260810COL","modelScore":null}},{"type":"Feature","geometry":{"type":"Point","coordinates":[-75.86373403599993,5.071190022000053]},"properties":{"externalId":"unosat-viterbo-0142","damageLevel":"dano","rawLabel":"Damage","fieldValidated":false,"rawEventCode":"EQ20260810COL","modelScore":null}},{"type":"Feature","geometry":{"type":"Point","coordinates":[-75.86431277999992,5.072051186000067]},"properties":{"externalId":"unosat-viterbo-0143","damageLevel":"posible_dano","rawLabel":"Possible Damage","fieldValidated":false,"rawEventCode":"EQ20260810COL","modelScore":null}},{"type":"Feature","geometry":{"type":"Point","coordinates":[-75.8620337509999,5.069986035000056]},"properties":{"externalId":"unosat-viterbo-0144","damageLevel":"posible_dano","rawLabel":"Possible Damage","fieldValidated":false,"rawEventCode":"EQ20260810COL","modelScore":null}},{"type":"Feature","geometry":{"type":"Point","coordinates":[-75.86240976099992,5.07401475000006]},"properties":{"externalId":"unosat-viterbo-0145","damageLevel":"posible_dano","rawLabel":"Possible Damage","fieldValidated":false,"rawEventCode":"EQ20260810COL","modelScore":null}},{"type":"Feature","geometry":{"type":"Point","coordinates":[-75.86255727299994,5.073788808000074]},"properties":{"externalId":"unosat-viterbo-0146","damageLevel":"posible_dano","rawLabel":"Possible Damage","fieldValidated":false,"rawEventCode":"EQ20260810COL","modelScore":null}},{"type":"Feature","geometry":{"type":"Point","coordinates":[-75.86260709999993,5.080162063000046]},"properties":{"externalId":"unosat-viterbo-0147","damageLevel":"posible_dano","rawLabel":"Possible Damage","fieldValidated":false,"rawEventCode":"EQ20260810COL","modelScore":null}},{"type":"Feature","geometry":{"type":"Point","coordinates":[-75.86398522899992,5.079778988000044]},"properties":{"externalId":"unosat-viterbo-0148","damageLevel":"posible_dano","rawLabel":"Possible Damage","fieldValidated":false,"rawEventCode":"EQ20260810COL","modelScore":null}},{"type":"Feature","geometry":{"type":"Point","coordinates":[-75.86757501199992,5.081528116000072]},"properties":{"externalId":"unosat-viterbo-0149","damageLevel":"posible_dano","rawLabel":"Possible Damage","fieldValidated":false,"rawEventCode":"EQ20260810COL","modelScore":null}},{"type":"Feature","geometry":{"type":"Point","coordinates":[-75.86632839299995,5.086303078000071]},"properties":{"externalId":"unosat-viterbo-0150","damageLevel":"dano","rawLabel":"Damage","fieldValidated":false,"rawEventCode":"EQ20260810COL","modelScore":null}},{"type":"Feature","geometry":{"type":"Point","coordinates":[-75.88389800599992,5.084807750000039]},"properties":{"externalId":"unosat-viterbo-0151","damageLevel":"posible_dano","rawLabel":"Possible Damage","fieldValidated":false,"rawEventCode":"EQ20260810COL","modelScore":null}},{"type":"Feature","geometry":{"type":"Point","coordinates":[-75.8880183249999,5.084621948000063]},"properties":{"externalId":"unosat-viterbo-0152","damageLevel":"dano","rawLabel":"Damage","fieldValidated":false,"rawEventCode":"EQ20260810COL","modelScore":null}},{"type":"Feature","geometry":{"type":"Point","coordinates":[-75.88206807799992,5.072447046000093]},"properties":{"externalId":"unosat-viterbo-0153","damageLevel":"posible_dano","rawLabel":"Possible Damage","fieldValidated":false,"rawEventCode":"EQ20260810COL","modelScore":null}}]}
